{"type":"FeatureCollection","features":[{"type":"Feature","properties":{"name":"London","tier":"capital","country":"Illustrative location"},"geometry":{"type":"Point","coordinates":[499,710]}},{"type":"Feature","properties":{"name":"Paris","tier":"capital","country":"Illustrative location"},"geometry":{"type":"Point","coordinates":[598,571]}},{"type":"Feature","properties":{"name":"Berlin","tier":"capital","country":"Illustrative location"},"geometry":{"type":"Point","coordinates":[907,705]}},{"type":"Feature","properties":{"name":"Vienna","tier":"capital","country":"Illustrative location"},"geometry":{"type":"Point","coordinates":[970,547]}},{"type":"Feature","properties":{"name":"Rome","tier":"capital","country":"Illustrative location"},"geometry":{"type":"Point","coordinates":[963,348]}},{"type":"Feature","properties":{"name":"Madrid","tier":"capital","country":"Illustrative location"},"geometry":{"type":"Point","coordinates":[460,321]}},{"type":"Feature","properties":{"name":"Stockholm","tier":"capital","country":"Illustrative location"},"geometry":{"type":"Point","coordinates":[920,1035]}},{"type":"Feature","properties":{"name":"Oslo","tier":"capital","country":"Illustrative location"},"geometry":{"type":"Point","coordinates":[794,973]}},{"type":"Feature","properties":{"name":"Helsinki","tier":"capital","country":"Illustrative location"},"geometry":{"type":"Point","coordinates":[1046,1024]}},{"type":"Feature","properties":{"name":"Warsaw","tier":"capital","country":"Illustrative location"},"geometry":{"type":"Point","coordinates":[1014,678]}}]}