{"type":"FeatureCollection","features":[{"type":"Feature","properties":{"id":"germany","name":"German Empire","kind":"country","color":"#ac69d2","culture":"German","alliance":"reichspakt","canon":true,"label":[808,688],"labelMinZoom":-1,"summary":"Illustrative German Empire entry for the Europe 1936 example. Its outline is traced from the supplied Kaiserreich / 1914 reference image, not a verified canonical 1936 border. Replace this description with your own lore.","claim":"Example contributor","flag":"assets/flags/germany.svg","shield":"assets/flags/germany.svg"},"geometry":{"type":"Polygon","coordinates":[[[812.0,642.0],[798.0,638.0],[794.0,626.0],[800.0,622.0],[802.0,606.0],[830.0,586.0],[830.0,576.0],[822.0,578.0],[822.0,570.0],[810.0,564.0],[812.0,546.0],[816.0,546.0],[816.0,542.0],[810.0,540.0],[810.0,544.0],[796.0,546.0],[782.0,542.0],[776.0,536.0],[756.0,540.0],[752.0,532.0],[744.0,540.0],[720.0,544.0],[716.0,548.0],[710.0,548.0],[710.0,542.0],[700.0,540.0],[672.0,540.0],[668.0,552.0],[674.0,560.0],[676.0,576.0],[654.0,588.0],[650.0,610.0],[644.0,610.0],[644.0,614.0],[630.0,624.0],[636.0,626.0],[636.0,630.0],[642.0,630.0],[642.0,636.0],[652.0,640.0],[654.0,650.0],[660.0,652.0],[658.0,662.0],[664.0,670.0],[660.0,688.0],[672.0,688.0],[676.0,690.0],[676.0,696.0],[684.0,700.0],[684.0,708.0],[676.0,712.0],[678.0,716.0],[684.0,716.0],[688.0,724.0],[688.0,738.0],[684.0,740.0],[686.0,748.0],[714.0,748.0],[716.0,756.0],[722.0,756.0],[722.0,770.0],[718.0,770.0],[718.0,774.0],[722.0,774.0],[722.0,784.0],[714.0,784.0],[712.0,792.0],[718.0,792.0],[718.0,798.0],[714.0,800.0],[720.0,800.0],[726.0,810.0],[736.0,808.0],[740.0,786.0],[744.0,786.0],[746.0,776.0],[756.0,772.0],[766.0,774.0],[764.0,760.0],[778.0,762.0],[778.0,766.0],[794.0,770.0],[794.0,776.0],[808.0,776.0],[812.0,784.0],[818.0,782.0],[818.0,774.0],[812.0,772.0],[812.0,766.0],[822.0,768.0],[824.0,762.0],[836.0,760.0],[852.0,770.0],[868.0,774.0],[872.0,782.0],[886.0,792.0],[904.0,798.0],[912.0,796.0],[916.0,784.0],[934.0,782.0],[944.0,792.0],[940.0,806.0],[964.0,808.0],[964.0,826.0],[958.0,840.0],[966.0,836.0],[970.0,824.0],[988.0,820.0],[998.0,810.0],[998.0,770.0],[986.0,760.0],[960.0,752.0],[958.0,746.0],[932.0,744.0],[926.0,740.0],[920.0,720.0],[912.0,718.0],[906.0,708.0],[906.0,702.0],[916.0,694.0],[920.0,674.0],[942.0,656.0],[940.0,646.0],[946.0,642.0],[944.0,634.0],[920.0,630.0],[912.0,636.0],[912.0,642.0],[904.0,644.0],[898.0,644.0],[898.0,638.0],[890.0,634.0],[888.0,640.0],[880.0,644.0],[884.0,646.0],[884.0,652.0],[860.0,656.0],[858.0,662.0],[852.0,662.0],[852.0,656.0],[838.0,662.0],[838.0,656.0],[812.0,642.0]]]}},{"type":"Feature","properties":{"id":"france","name":"Commune of France","kind":"country","color":"#ac9be5","culture":"French","alliance":"international","canon":true,"label":[550,534],"labelMinZoom":-1,"summary":"Illustrative Commune of France entry for the Europe 1936 example. Its outline is traced from the supplied Kaiserreich / 1914 reference image, not a verified canonical 1936 border. Replace this description with your own lore.","claim":"Example contributor","flag":"assets/flags/france.svg","shield":"assets/flags/france.svg"},"geometry":{"type":"Polygon","coordinates":[[[468.0,532.0],[462.0,538.0],[466.0,548.0],[464.0,554.0],[458.0,556.0],[458.0,564.0],[450.0,564.0],[450.0,568.0],[444.0,568.0],[428.0,582.0],[418.0,582.0],[416.0,590.0],[420.0,590.0],[420.0,596.0],[416.0,596.0],[412.0,606.0],[422.0,610.0],[442.0,608.0],[444.0,612.0],[452.0,610.0],[456.0,600.0],[486.0,598.0],[484.0,634.0],[496.0,632.0],[496.0,620.0],[526.0,616.0],[528.0,628.0],[550.0,632.0],[562.0,640.0],[564.0,664.0],[576.0,666.0],[582.0,652.0],[596.0,656.0],[606.0,640.0],[618.0,638.0],[618.0,626.0],[630.0,626.0],[644.0,610.0],[650.0,610.0],[652.0,590.0],[676.0,576.0],[674.0,562.0],[668.0,554.0],[674.0,532.0],[662.0,522.0],[662.0,516.0],[654.0,512.0],[654.0,500.0],[646.0,494.0],[646.0,484.0],[650.0,480.0],[662.0,484.0],[676.0,470.0],[670.0,460.0],[664.0,460.0],[664.0,452.0],[672.0,450.0],[668.0,440.0],[670.0,424.0],[684.0,422.0],[682.0,412.0],[668.0,406.0],[658.0,392.0],[648.0,390.0],[640.0,390.0],[630.0,396.0],[630.0,400.0],[610.0,402.0],[610.0,406.0],[592.0,410.0],[570.0,396.0],[570.0,374.0],[552.0,372.0],[550.0,376.0],[540.0,374.0],[536.0,384.0],[528.0,384.0],[514.0,394.0],[498.0,390.0],[480.0,396.0],[474.0,404.0],[458.0,408.0],[460.0,416.0],[452.0,418.0],[464.0,432.0],[478.0,490.0],[482.0,490.0],[482.0,496.0],[478.0,498.0],[480.0,506.0],[476.0,506.0],[482.0,508.0],[482.0,518.0],[468.0,526.0],[468.0,532.0]]]}},{"type":"Feature","properties":{"id":"britain","name":"Union of Britain","kind":"country","color":"#cd6598","culture":"British","alliance":"international","canon":true,"label":[498,728],"labelMinZoom":-1,"summary":"Illustrative Union of Britain entry for the Europe 1936 example. Its outline is traced from the supplied Kaiserreich / 1914 reference image, not a verified canonical 1936 border. Replace this description with your own lore.","claim":"Example contributor","flag":"assets/flags/britain.svg","shield":"assets/flags/britain.svg"},"geometry":{"type":"Polygon","coordinates":[[[542.0,734.0],[554.0,738.0],[570.0,732.0],[574.0,726.0],[570.0,706.0],[550.0,692.0],[552.0,682.0],[562.0,682.0],[562.0,674.0],[552.0,672.0],[552.0,668.0],[538.0,664.0],[506.0,668.0],[506.0,664.0],[500.0,662.0],[494.0,670.0],[482.0,666.0],[472.0,672.0],[454.0,672.0],[452.0,662.0],[448.0,660.0],[440.0,666.0],[424.0,666.0],[418.0,664.0],[416.0,658.0],[404.0,662.0],[404.0,666.0],[414.0,666.0],[422.0,676.0],[428.0,676.0],[434.0,682.0],[434.0,688.0],[442.0,688.0],[442.0,694.0],[468.0,690.0],[468.0,696.0],[458.0,698.0],[454.0,706.0],[444.0,706.0],[444.0,714.0],[426.0,714.0],[428.0,724.0],[444.0,726.0],[454.0,734.0],[454.0,752.0],[444.0,750.0],[450.0,754.0],[448.0,766.0],[456.0,768.0],[458.0,762.0],[478.0,762.0],[482.0,778.0],[488.0,782.0],[488.0,788.0],[482.0,788.0],[476.0,800.0],[482.0,816.0],[474.0,816.0],[472.0,812.0],[466.0,814.0],[460.0,812.0],[448.0,820.0],[462.0,838.0],[460.0,850.0],[454.0,850.0],[454.0,840.0],[444.0,842.0],[444.0,838.0],[440.0,838.0],[446.0,858.0],[440.0,858.0],[436.0,850.0],[430.0,854.0],[430.0,858.0],[450.0,864.0],[450.0,872.0],[436.0,872.0],[440.0,874.0],[442.0,888.0],[450.0,888.0],[448.0,902.0],[442.0,904.0],[438.0,914.0],[448.0,918.0],[448.0,906.0],[454.0,906.0],[458.0,922.0],[466.0,924.0],[468.0,934.0],[472.0,934.0],[478.0,946.0],[486.0,940.0],[512.0,940.0],[506.0,928.0],[490.0,920.0],[490.0,914.0],[492.0,908.0],[502.0,910.0],[528.0,902.0],[516.0,876.0],[510.0,874.0],[510.0,868.0],[502.0,866.0],[502.0,860.0],[506.0,860.0],[504.0,850.0],[520.0,832.0],[522.0,802.0],[536.0,792.0],[538.0,782.0],[542.0,780.0],[542.0,756.0],[548.0,750.0],[548.0,742.0],[542.0,740.0],[542.0,734.0]]]}},{"type":"Feature","properties":{"id":"ireland","name":"Ireland","kind":"country","color":"#26a9d4","culture":"Irish","alliance":"independent","canon":true,"label":[376,776],"labelMinZoom":-1,"summary":"Illustrative Ireland entry for the Europe 1936 example. Its outline is traced from the supplied Kaiserreich / 1914 reference image, not a verified canonical 1936 border. Replace this description with your own lore.","claim":"Example contributor","flag":"assets/flags/ireland.svg","shield":"assets/flags/ireland.svg"},"geometry":{"type":"Polygon","coordinates":[[[350.0,774.0],[352.0,786.0],[340.0,794.0],[340.0,800.0],[346.0,802.0],[344.0,816.0],[350.0,816.0],[348.0,824.0],[378.0,816.0],[382.0,822.0],[378.0,832.0],[384.0,832.0],[390.0,844.0],[412.0,846.0],[416.0,838.0],[434.0,836.0],[440.0,806.0],[430.0,802.0],[428.0,796.0],[420.0,796.0],[418.0,758.0],[406.0,744.0],[406.0,736.0],[380.0,738.0],[356.0,728.0],[328.0,730.0],[324.0,744.0],[320.0,744.0],[320.0,748.0],[324.0,748.0],[324.0,754.0],[320.0,756.0],[334.0,758.0],[338.0,768.0],[350.0,774.0]]]}},{"type":"Feature","properties":{"id":"spain","name":"Kingdom of Spain","kind":"country","color":"#d75413","culture":"Spanish","alliance":"independent","canon":true,"label":[400,326],"labelMinZoom":-1,"summary":"Illustrative Kingdom of Spain entry for the Europe 1936 example. Its outline is traced from the supplied Kaiserreich / 1914 reference image, not a verified canonical 1936 border. Replace this description with your own lore.","claim":"Example contributor","flag":"assets/flags/spain.svg","shield":"assets/flags/spain.svg"},"geometry":{"type":"Polygon","coordinates":[[[506.0,326.0],[506.0,320.0],[498.0,318.0],[468.0,284.0],[470.0,266.0],[480.0,254.0],[458.0,244.0],[448.0,228.0],[448.0,220.0],[430.0,220.0],[422.0,216.0],[408.0,196.0],[402.0,196.0],[402.0,200.0],[392.0,200.0],[388.0,196.0],[376.0,202.0],[368.0,200.0],[364.0,204.0],[340.0,206.0],[334.0,200.0],[324.0,202.0],[310.0,194.0],[310.0,172.0],[324.0,156.0],[354.0,154.0],[356.0,150.0],[370.0,150.0],[374.0,154.0],[374.0,144.0],[388.0,142.0],[386.0,136.0],[380.0,136.0],[370.0,126.0],[350.0,128.0],[342.0,138.0],[316.0,138.0],[314.0,144.0],[302.0,152.0],[278.0,158.0],[292.0,184.0],[306.0,184.0],[306.0,190.0],[292.0,198.0],[286.0,228.0],[276.0,238.0],[264.0,240.0],[266.0,260.0],[280.0,266.0],[276.0,280.0],[278.0,290.0],[290.0,298.0],[290.0,304.0],[284.0,306.0],[280.0,326.0],[294.0,324.0],[300.0,330.0],[298.0,340.0],[304.0,342.0],[308.0,354.0],[306.0,368.0],[326.0,376.0],[322.0,396.0],[312.0,400.0],[296.0,398.0],[294.0,402.0],[282.0,400.0],[284.0,412.0],[270.0,412.0],[264.0,408.0],[270.0,422.0],[264.0,448.0],[274.0,456.0],[292.0,454.0],[292.0,460.0],[300.0,464.0],[310.0,464.0],[324.0,452.0],[344.0,448.0],[354.0,450.0],[358.0,444.0],[378.0,438.0],[380.0,434.0],[408.0,434.0],[416.0,426.0],[428.0,428.0],[438.0,420.0],[450.0,422.0],[450.0,418.0],[460.0,416.0],[460.0,408.0],[468.0,406.0],[478.0,396.0],[488.0,396.0],[498.0,390.0],[510.0,390.0],[510.0,394.0],[514.0,394.0],[528.0,386.0],[528.0,378.0],[538.0,378.0],[540.0,374.0],[548.0,376.0],[552.0,372.0],[570.0,374.0],[574.0,370.0],[572.0,356.0],[566.0,350.0],[544.0,342.0],[540.0,336.0],[510.0,332.0],[506.0,326.0]]]}},{"type":"Feature","properties":{"id":"portugal","name":"Portugal","kind":"country","color":"#ad95e5","culture":"Portuguese","alliance":"entente","canon":true,"label":[258,314],"labelMinZoom":-1,"summary":"Illustrative Portugal entry for the Europe 1936 example. Its outline is traced from the supplied Kaiserreich / 1914 reference image, not a verified canonical 1936 border. Replace this description with your own lore.","claim":"Example contributor","flag":"assets/flags/portugal.svg","shield":"assets/flags/portugal.svg"},"geometry":{"type":"Polygon","coordinates":[[[284.0,314.0],[284.0,306.0],[290.0,300.0],[276.0,288.0],[276.0,278.0],[282.0,268.0],[274.0,268.0],[272.0,262.0],[266.0,260.0],[264.0,244.0],[246.0,238.0],[242.0,244.0],[220.0,246.0],[230.0,260.0],[232.0,278.0],[236.0,282.0],[236.0,294.0],[226.0,294.0],[228.0,304.0],[224.0,304.0],[222.0,310.0],[226.0,312.0],[230.0,326.0],[236.0,328.0],[244.0,340.0],[264.0,376.0],[264.0,406.0],[268.0,410.0],[282.0,412.0],[282.0,400.0],[296.0,400.0],[300.0,396.0],[310.0,400.0],[322.0,396.0],[322.0,386.0],[326.0,386.0],[328.0,380.0],[306.0,368.0],[308.0,360.0],[304.0,344.0],[298.0,342.0],[300.0,332.0],[294.0,324.0],[282.0,324.0],[284.0,314.0]]]}},{"type":"Feature","properties":{"id":"italy-north","name":"Italian Federation","kind":"country","color":"#c55cdd","culture":"Italian","alliance":"austria","canon":true,"label":[764,418],"labelMinZoom":-1,"summary":"Illustrative Italian Federation entry for the Europe 1936 example. Its outline is traced from the supplied Kaiserreich / 1914 reference image, not a verified canonical 1936 border. Replace this description with your own lore.","claim":"Example contributor","flag":"assets/flags/italy-north.svg","shield":"assets/flags/italy-north.svg"},"geometry":{"type":"Polygon","coordinates":[[[750.0,416.0],[746.0,422.0],[738.0,422.0],[730.0,430.0],[712.0,434.0],[698.0,416.0],[684.0,412.0],[682.0,422.0],[670.0,426.0],[668.0,440.0],[672.0,450.0],[660.0,456.0],[660.0,460.0],[676.0,464.0],[676.0,470.0],[668.0,480.0],[670.0,484.0],[698.0,488.0],[700.0,498.0],[708.0,504.0],[708.0,494.0],[714.0,492.0],[710.0,478.0],[716.0,466.0],[728.0,456.0],[740.0,456.0],[752.0,452.0],[768.0,456.0],[778.0,452.0],[806.0,452.0],[800.0,448.0],[802.0,428.0],[824.0,410.0],[834.0,408.0],[842.0,388.0],[816.0,378.0],[816.0,370.0],[810.0,368.0],[808.0,360.0],[796.0,354.0],[784.0,364.0],[774.0,364.0],[774.0,372.0],[758.0,384.0],[758.0,396.0],[752.0,402.0],[750.0,416.0]]]}},{"type":"Feature","properties":{"id":"italy-south","name":"Southern Italy","kind":"country","color":"#21add9","culture":"Italian","alliance":"independent","canon":true,"label":[886,314],"labelMinZoom":-1,"summary":"Illustrative Southern Italy entry for the Europe 1936 example. Its outline is traced from the supplied Kaiserreich / 1914 reference image, not a verified canonical 1936 border. Replace this description with your own lore.","claim":"Example contributor","flag":"assets/flags/italy-south.svg","shield":"assets/flags/italy-south.svg"},"geometry":{"type":"Polygon","coordinates":[[[872.0,308.0],[860.0,306.0],[860.0,312.0],[850.0,312.0],[844.0,326.0],[828.0,328.0],[832.0,346.0],[828.0,352.0],[820.0,354.0],[816.0,372.0],[822.0,382.0],[844.0,386.0],[850.0,370.0],[876.0,352.0],[904.0,354.0],[904.0,348.0],[898.0,344.0],[900.0,336.0],[930.0,328.0],[936.0,322.0],[954.0,316.0],[970.0,302.0],[968.0,288.0],[962.0,288.0],[954.0,302.0],[940.0,302.0],[936.0,308.0],[928.0,308.0],[920.0,294.0],[920.0,276.0],[932.0,274.0],[938.0,264.0],[938.0,252.0],[928.0,252.0],[924.0,248.0],[924.0,232.0],[916.0,228.0],[914.0,218.0],[892.0,216.0],[886.0,200.0],[886.0,194.0],[894.0,186.0],[890.0,170.0],[874.0,172.0],[862.0,184.0],[850.0,184.0],[834.0,196.0],[818.0,198.0],[812.0,204.0],[814.0,216.0],[818.0,218.0],[828.0,216.0],[836.0,222.0],[838.0,218.0],[852.0,214.0],[872.0,218.0],[874.0,222.0],[888.0,222.0],[894.0,228.0],[904.0,228.0],[904.0,242.0],[912.0,244.0],[908.0,266.0],[902.0,272.0],[898.0,286.0],[886.0,286.0],[878.0,292.0],[872.0,308.0]]]}},{"type":"Feature","properties":{"id":"sardinia","name":"Sardinia","kind":"country","color":"#ce659a","culture":"Italian","alliance":"entente","canon":true,"label":[718,286],"labelMinZoom":-1,"summary":"Illustrative Sardinia entry for the Europe 1936 example. Its outline is traced from the supplied Kaiserreich / 1914 reference image, not a verified canonical 1936 border. Replace this description with your own lore.","claim":"Example contributor","flag":"assets/flags/sardinia.svg","shield":"assets/flags/sardinia.svg"},"geometry":{"type":"Polygon","coordinates":[[[704.0,284.0],[704.0,294.0],[696.0,308.0],[698.0,312.0],[712.0,312.0],[724.0,324.0],[732.0,320.0],[740.0,302.0],[736.0,286.0],[734.0,252.0],[718.0,254.0],[716.0,244.0],[700.0,248.0],[706.0,272.0],[706.0,278.0],[702.0,278.0],[704.0,284.0]]]}},{"type":"Feature","properties":{"id":"austria","name":"Austrian sphere","kind":"country","color":"#4acdb0","culture":"Danubian","alliance":"austria","canon":true,"label":[960,540],"labelMinZoom":-1,"summary":"Illustrative Austrian sphere entry for the Europe 1936 example. Its outline is traced from the supplied Kaiserreich / 1914 reference image, not a verified canonical 1936 border. Replace this description with your own lore.","claim":"Example contributor","flag":"assets/flags/austria.svg","shield":"assets/flags/austria.svg"},"geometry":{"type":"Polygon","coordinates":[[[976.0,468.0],[972.0,466.0],[968.0,444.0],[982.0,436.0],[976.0,434.0],[980.0,420.0],[974.0,420.0],[970.0,410.0],[962.0,408.0],[962.0,398.0],[958.0,398.0],[960.0,384.0],[966.0,384.0],[968.0,376.0],[972.0,376.0],[966.0,374.0],[932.0,392.0],[920.0,390.0],[918.0,384.0],[918.0,390.0],[914.0,392.0],[926.0,394.0],[926.0,400.0],[914.0,402.0],[914.0,396.0],[910.0,396.0],[906.0,402.0],[908.0,410.0],[894.0,408.0],[890.0,416.0],[878.0,422.0],[872.0,428.0],[870.0,438.0],[864.0,440.0],[864.0,448.0],[860.0,448.0],[864.0,450.0],[864.0,456.0],[854.0,456.0],[856.0,444.0],[852.0,444.0],[850.0,450.0],[852.0,460.0],[846.0,460.0],[842.0,450.0],[838.0,450.0],[830.0,466.0],[834.0,480.0],[824.0,480.0],[824.0,486.0],[830.0,492.0],[830.0,498.0],[826.0,498.0],[828.0,506.0],[802.0,512.0],[798.0,506.0],[788.0,504.0],[790.0,494.0],[784.0,492.0],[784.0,488.0],[774.0,486.0],[772.0,478.0],[766.0,478.0],[766.0,482.0],[760.0,482.0],[758.0,478.0],[756.0,520.0],[746.0,516.0],[736.0,524.0],[734.0,532.0],[738.0,534.0],[738.0,540.0],[744.0,540.0],[746.0,534.0],[756.0,534.0],[756.0,540.0],[776.0,536.0],[782.0,542.0],[796.0,542.0],[796.0,546.0],[808.0,546.0],[810.0,540.0],[816.0,540.0],[816.0,548.0],[812.0,548.0],[808.0,562.0],[822.0,568.0],[824.0,576.0],[832.0,578.0],[830.0,588.0],[822.0,590.0],[816.0,598.0],[806.0,602.0],[798.0,614.0],[800.0,624.0],[794.0,626.0],[792.0,634.0],[836.0,654.0],[838.0,662.0],[842.0,662.0],[844.0,656.0],[852.0,656.0],[854.0,662.0],[862.0,654.0],[882.0,652.0],[882.0,642.0],[888.0,634.0],[894.0,634.0],[896.0,644.0],[914.0,642.0],[914.0,634.0],[920.0,630.0],[942.0,632.0],[946.0,636.0],[946.0,646.0],[954.0,642.0],[972.0,642.0],[978.0,650.0],[994.0,658.0],[1000.0,670.0],[1012.0,666.0],[1014.0,658.0],[1028.0,658.0],[1030.0,662.0],[1042.0,664.0],[1050.0,674.0],[1058.0,674.0],[1058.0,668.0],[1072.0,668.0],[1084.0,652.0],[1102.0,652.0],[1106.0,624.0],[1112.0,616.0],[1106.0,614.0],[1106.0,608.0],[1114.0,604.0],[1114.0,588.0],[1118.0,584.0],[1114.0,582.0],[1110.0,566.0],[1138.0,534.0],[1132.0,510.0],[1126.0,506.0],[1110.0,506.0],[1106.0,510.0],[1092.0,508.0],[1082.0,500.0],[1074.0,500.0],[1070.0,494.0],[1054.0,490.0],[1042.0,460.0],[1038.0,466.0],[1026.0,468.0],[1018.0,468.0],[1012.0,462.0],[996.0,466.0],[996.0,460.0],[982.0,460.0],[982.0,466.0],[976.0,468.0]]]}},{"type":"Feature","properties":{"id":"switzerland","name":"Switzerland","kind":"country","color":"#cf6097","culture":"Alpine","alliance":"independent","canon":true,"label":[688,510],"labelMinZoom":-1,"summary":"Illustrative Switzerland entry for the Europe 1936 example. Its outline is traced from the supplied Kaiserreich / 1914 reference image, not a verified canonical 1936 border. Replace this description with your own lore.","claim":"Example contributor","flag":"assets/flags/switzerland.svg","shield":"assets/flags/switzerland.svg"},"geometry":{"type":"Polygon","coordinates":[[[704.0,500.0],[694.0,486.0],[658.0,480.0],[648.0,482.0],[646.0,486.0],[646.0,494.0],[654.0,498.0],[654.0,510.0],[662.0,514.0],[662.0,522.0],[674.0,530.0],[676.0,540.0],[688.0,538.0],[694.0,542.0],[710.0,542.0],[710.0,546.0],[728.0,544.0],[736.0,538.0],[734.0,524.0],[742.0,522.0],[742.0,518.0],[756.0,520.0],[756.0,506.0],[746.0,508.0],[748.0,496.0],[744.0,500.0],[728.0,500.0],[722.0,492.0],[722.0,482.0],[718.0,492.0],[712.0,492.0],[708.0,500.0],[704.0,500.0]]]}},{"type":"Feature","properties":{"id":"belgium","name":"Flanders\u2013Wallonia","kind":"country","color":"#d75413","culture":"Low Countries","alliance":"reichspakt","canon":true,"label":[614,656],"labelMinZoom":-1,"summary":"Illustrative Flanders\u2013Wallonia entry for the Europe 1936 example. Its outline is traced from the supplied Kaiserreich / 1914 reference image, not a verified canonical 1936 border. Replace this description with your own lore.","claim":"Example contributor","flag":"assets/flags/belgium.svg","shield":"assets/flags/belgium.svg"},"geometry":{"type":"Polygon","coordinates":[[[614.0,670.0],[626.0,674.0],[626.0,678.0],[634.0,678.0],[640.0,676.0],[642.0,670.0],[654.0,666.0],[652.0,652.0],[656.0,650.0],[652.0,648.0],[652.0,640.0],[640.0,636.0],[634.0,620.0],[632.0,626.0],[626.0,626.0],[616.0,628.0],[618.0,638.0],[612.0,638.0],[596.0,654.0],[582.0,654.0],[576.0,662.0],[576.0,668.0],[590.0,670.0],[596.0,676.0],[614.0,670.0]]]}},{"type":"Feature","properties":{"id":"netherlands","name":"Netherlands","kind":"country","color":"#24acd7","culture":"Dutch","alliance":"independent","canon":true,"label":[656,714],"labelMinZoom":-1,"summary":"Illustrative Netherlands entry for the Europe 1936 example. Its outline is traced from the supplied Kaiserreich / 1914 reference image, not a verified canonical 1936 border. Replace this description with your own lore.","claim":"Example contributor","flag":"assets/flags/netherlands.svg","shield":"assets/flags/netherlands.svg"},"geometry":{"type":"Polygon","coordinates":[[[658.0,714.0],[660.0,722.0],[650.0,724.0],[652.0,740.0],[680.0,744.0],[682.0,738.0],[688.0,736.0],[684.0,716.0],[678.0,716.0],[678.0,708.0],[684.0,704.0],[676.0,690.0],[660.0,690.0],[664.0,672.0],[662.0,664.0],[658.0,664.0],[658.0,652.0],[652.0,654.0],[654.0,660.0],[654.0,668.0],[644.0,670.0],[640.0,676.0],[622.0,676.0],[614.0,670.0],[604.0,672.0],[604.0,678.0],[606.0,684.0],[612.0,684.0],[618.0,696.0],[628.0,702.0],[638.0,736.0],[640.0,726.0],[648.0,720.0],[642.0,716.0],[642.0,706.0],[652.0,704.0],[658.0,708.0],[658.0,714.0]]]}},{"type":"Feature","properties":{"id":"denmark","name":"Denmark","kind":"country","color":"#d75413","culture":"Danish","alliance":"independent","canon":true,"label":[744,830],"labelMinZoom":-1,"summary":"Illustrative Denmark entry for the Europe 1936 example. Its outline is traced from the supplied Kaiserreich / 1914 reference image, not a verified canonical 1936 border. Replace this description with your own lore.","claim":"Example contributor","flag":"assets/flags/denmark.svg","shield":"assets/flags/denmark.svg"},"geometry":{"type":"Polygon","coordinates":[[[750.0,830.0],[746.0,816.0],[760.0,814.0],[764.0,794.0],[778.0,790.0],[780.0,800.0],[768.0,804.0],[764.0,820.0],[770.0,820.0],[774.0,828.0],[782.0,828.0],[786.0,834.0],[796.0,832.0],[796.0,814.0],[790.0,814.0],[794.0,804.0],[788.0,802.0],[788.0,796.0],[796.0,794.0],[790.0,794.0],[784.0,782.0],[746.0,790.0],[738.0,796.0],[742.0,798.0],[742.0,808.0],[724.0,810.0],[722.0,804.0],[718.0,804.0],[714.0,812.0],[708.0,812.0],[712.0,824.0],[708.0,836.0],[712.0,860.0],[718.0,868.0],[734.0,868.0],[744.0,884.0],[756.0,888.0],[756.0,870.0],[752.0,868.0],[750.0,854.0],[752.0,848.0],[760.0,848.0],[764.0,842.0],[760.0,834.0],[750.0,830.0]]]}},{"type":"Feature","properties":{"id":"norway","name":"Norway","kind":"country","color":"#47cbae","culture":"Norwegian","alliance":"independent","canon":true,"label":[718,1008],"labelMinZoom":-1,"summary":"Illustrative Norway entry for the Europe 1936 example. Its outline is traced from the supplied Kaiserreich / 1914 reference image, not a verified canonical 1936 border. Replace this description with your own lore.","claim":"Example contributor","flag":"assets/flags/norway.svg","shield":"assets/flags/norway.svg"},"geometry":{"type":"Polygon","coordinates":[[[660.0,1008.0],[662.0,1018.0],[666.0,1020.0],[660.0,1034.0],[664.0,1034.0],[666.0,1044.0],[672.0,1044.0],[678.0,1052.0],[686.0,1050.0],[684.0,1058.0],[692.0,1058.0],[696.0,1070.0],[712.0,1074.0],[710.0,1086.0],[716.0,1086.0],[716.0,1080.0],[722.0,1080.0],[722.0,1086.0],[718.0,1086.0],[720.0,1096.0],[726.0,1098.0],[726.0,1092.0],[738.0,1090.0],[744.0,1108.0],[760.0,1128.0],[764.0,1128.0],[764.0,1136.0],[756.0,1138.0],[768.0,1138.0],[768.0,1146.0],[776.0,1144.0],[776.0,1154.0],[782.0,1166.0],[780.0,1182.0],[784.0,1182.0],[788.0,1196.0],[796.0,1202.0],[796.0,1212.0],[802.0,1212.0],[806.0,1226.0],[812.0,1228.0],[810.0,1244.0],[820.0,1256.0],[824.0,1256.0],[824.0,1260.0],[828.0,1260.0],[828.0,1266.0],[808.0,1260.0],[806.0,1256.0],[796.0,1256.0],[796.0,1252.0],[790.0,1254.0],[794.0,1260.0],[804.0,1260.0],[804.0,1276.0],[810.0,1286.0],[816.0,1286.0],[822.0,1298.0],[822.0,1282.0],[828.0,1282.0],[830.0,1286.0],[830.0,1278.0],[836.0,1278.0],[838.0,1290.0],[834.0,1292.0],[838.0,1308.0],[850.0,1312.0],[858.0,1336.0],[866.0,1338.0],[868.0,1334.0],[874.0,1334.0],[874.0,1338.0],[880.0,1338.0],[880.0,1332.0],[874.0,1332.0],[874.0,1326.0],[880.0,1326.0],[880.0,1332.0],[886.0,1332.0],[886.0,1342.0],[904.0,1348.0],[904.0,1354.0],[894.0,1352.0],[894.0,1358.0],[904.0,1360.0],[904.0,1364.0],[916.0,1364.0],[916.0,1368.0],[920.0,1368.0],[920.0,1378.0],[922.0,1372.0],[930.0,1372.0],[930.0,1382.0],[936.0,1382.0],[936.0,1372.0],[942.0,1372.0],[946.0,1378.0],[946.0,1362.0],[952.0,1362.0],[954.0,1378.0],[950.0,1378.0],[950.0,1382.0],[954.0,1382.0],[954.0,1386.0],[976.0,1382.0],[978.0,1378.0],[988.0,1380.0],[996.0,1372.0],[1002.0,1372.0],[1002.0,1366.0],[988.0,1356.0],[988.0,1350.0],[1004.0,1350.0],[1008.0,1340.0],[1000.0,1340.0],[998.0,1332.0],[992.0,1328.0],[992.0,1318.0],[988.0,1316.0],[986.0,1324.0],[990.0,1334.0],[986.0,1340.0],[974.0,1342.0],[970.0,1348.0],[962.0,1348.0],[960.0,1342.0],[950.0,1342.0],[950.0,1334.0],[946.0,1332.0],[948.0,1302.0],[942.0,1298.0],[942.0,1290.0],[924.0,1294.0],[920.0,1286.0],[908.0,1288.0],[896.0,1306.0],[890.0,1306.0],[888.0,1296.0],[880.0,1296.0],[880.0,1272.0],[872.0,1270.0],[866.0,1274.0],[854.0,1274.0],[854.0,1256.0],[842.0,1256.0],[838.0,1252.0],[836.0,1240.0],[830.0,1234.0],[834.0,1216.0],[822.0,1198.0],[824.0,1188.0],[810.0,1184.0],[812.0,1154.0],[802.0,1134.0],[802.0,1126.0],[808.0,1124.0],[808.0,1112.0],[806.0,1108.0],[788.0,1108.0],[778.0,1086.0],[778.0,1054.0],[782.0,1050.0],[780.0,1026.0],[790.0,1020.0],[792.0,1008.0],[784.0,1002.0],[790.0,980.0],[788.0,968.0],[778.0,964.0],[778.0,956.0],[774.0,954.0],[774.0,928.0],[770.0,930.0],[770.0,936.0],[752.0,940.0],[746.0,930.0],[734.0,928.0],[730.0,918.0],[726.0,918.0],[726.0,914.0],[712.0,902.0],[702.0,898.0],[682.0,902.0],[682.0,908.0],[674.0,910.0],[664.0,922.0],[666.0,934.0],[672.0,934.0],[674.0,938.0],[674.0,946.0],[662.0,944.0],[660.0,940.0],[660.0,964.0],[666.0,968.0],[664.0,978.0],[658.0,978.0],[662.0,986.0],[660.0,1008.0]]]}},{"type":"Feature","properties":{"id":"sweden","name":"Sweden","kind":"country","color":"#aa97e6","culture":"Swedish","alliance":"independent","canon":true,"label":[844,1092],"labelMinZoom":-1,"summary":"Illustrative Sweden entry for the Europe 1936 example. Its outline is traced from the supplied Kaiserreich / 1914 reference image, not a verified canonical 1936 border. Replace this description with your own lore.","claim":"Example contributor","flag":"assets/flags/sweden.svg","shield":"assets/flags/sweden.svg"},"geometry":{"type":"Polygon","coordinates":[[[884.0,1088.0],[880.0,1084.0],[880.0,1074.0],[874.0,1072.0],[872.0,1060.0],[864.0,1058.0],[864.0,1052.0],[868.0,1050.0],[864.0,1010.0],[868.0,994.0],[880.0,994.0],[884.0,986.0],[890.0,986.0],[890.0,980.0],[900.0,974.0],[902.0,966.0],[896.0,964.0],[896.0,950.0],[892.0,950.0],[886.0,936.0],[880.0,936.0],[868.0,926.0],[866.0,864.0],[872.0,864.0],[870.0,844.0],[866.0,850.0],[860.0,850.0],[858.0,838.0],[836.0,838.0],[836.0,832.0],[826.0,828.0],[826.0,818.0],[830.0,814.0],[812.0,808.0],[802.0,812.0],[802.0,826.0],[794.0,834.0],[800.0,852.0],[796.0,852.0],[786.0,868.0],[766.0,922.0],[766.0,934.0],[770.0,934.0],[770.0,928.0],[776.0,928.0],[778.0,934.0],[778.0,948.0],[774.0,952.0],[778.0,954.0],[778.0,962.0],[788.0,968.0],[790.0,978.0],[784.0,1002.0],[790.0,1002.0],[794.0,1010.0],[794.0,1016.0],[782.0,1024.0],[784.0,1048.0],[780.0,1052.0],[780.0,1094.0],[790.0,1108.0],[808.0,1108.0],[810.0,1112.0],[802.0,1132.0],[812.0,1152.0],[812.0,1182.0],[824.0,1188.0],[824.0,1200.0],[834.0,1216.0],[830.0,1234.0],[836.0,1236.0],[836.0,1246.0],[842.0,1254.0],[854.0,1254.0],[854.0,1274.0],[880.0,1270.0],[878.0,1294.0],[886.0,1294.0],[894.0,1284.0],[916.0,1276.0],[920.0,1268.0],[928.0,1264.0],[930.0,1244.0],[934.0,1244.0],[932.0,1234.0],[940.0,1226.0],[940.0,1202.0],[950.0,1192.0],[948.0,1188.0],[936.0,1188.0],[936.0,1184.0],[924.0,1186.0],[924.0,1178.0],[920.0,1170.0],[916.0,1170.0],[916.0,1154.0],[912.0,1152.0],[914.0,1140.0],[920.0,1136.0],[912.0,1124.0],[912.0,1114.0],[898.0,1102.0],[898.0,1096.0],[890.0,1096.0],[890.0,1090.0],[884.0,1088.0]]]}},{"type":"Feature","properties":{"id":"finland","name":"Finland","kind":"country","color":"#cf6097","culture":"Finnish","alliance":"independent","canon":true,"label":[980,1092],"labelMinZoom":-1,"summary":"Illustrative Finland entry for the Europe 1936 example. Its outline is traced from the supplied Kaiserreich / 1914 reference image, not a verified canonical 1936 border. Replace this description with your own lore.","claim":"Example contributor","flag":"assets/flags/finland.svg","shield":"assets/flags/finland.svg"},"geometry":{"type":"Polygon","coordinates":[[[934.0,1094.0],[940.0,1112.0],[944.0,1112.0],[950.0,1126.0],[954.0,1126.0],[966.0,1160.0],[972.0,1160.0],[970.0,1182.0],[948.0,1192.0],[946.0,1200.0],[940.0,1204.0],[940.0,1228.0],[934.0,1232.0],[928.0,1264.0],[918.0,1276.0],[904.0,1278.0],[888.0,1290.0],[888.0,1304.0],[894.0,1306.0],[906.0,1288.0],[912.0,1286.0],[924.0,1288.0],[926.0,1294.0],[944.0,1290.0],[944.0,1300.0],[950.0,1302.0],[946.0,1322.0],[950.0,1340.0],[960.0,1342.0],[964.0,1350.0],[978.0,1340.0],[986.0,1340.0],[990.0,1334.0],[986.0,1326.0],[988.0,1292.0],[992.0,1286.0],[1004.0,1284.0],[1006.0,1278.0],[1018.0,1272.0],[1028.0,1260.0],[1028.0,1232.0],[1040.0,1216.0],[1036.0,1206.0],[1032.0,1204.0],[1032.0,1186.0],[1036.0,1186.0],[1036.0,1174.0],[1046.0,1172.0],[1046.0,1160.0],[1058.0,1158.0],[1070.0,1162.0],[1078.0,1156.0],[1086.0,1156.0],[1086.0,1136.0],[1092.0,1130.0],[1098.0,1130.0],[1106.0,1120.0],[1106.0,1092.0],[1110.0,1092.0],[1110.0,1088.0],[1104.0,1088.0],[1104.0,1076.0],[1108.0,1074.0],[1110.0,1064.0],[1102.0,1066.0],[1098.0,1072.0],[1082.0,1074.0],[1076.0,1050.0],[1084.0,1048.0],[1088.0,1038.0],[1094.0,1036.0],[1092.0,1030.0],[1084.0,1030.0],[1084.0,1020.0],[1072.0,1014.0],[1068.0,1018.0],[1060.0,1016.0],[1060.0,1028.0],[1054.0,1028.0],[1052.0,1022.0],[1020.0,1012.0],[1014.0,1004.0],[998.0,998.0],[996.0,992.0],[974.0,986.0],[974.0,982.0],[972.0,988.0],[960.0,986.0],[960.0,992.0],[948.0,994.0],[946.0,1000.0],[938.0,998.0],[936.0,1040.0],[930.0,1048.0],[930.0,1058.0],[924.0,1064.0],[926.0,1090.0],[922.0,1090.0],[934.0,1094.0]]]}},{"type":"Feature","properties":{"id":"russia","name":"Russian Republic","kind":"country","color":"#24acd7","culture":"Russian","alliance":"russia","canon":true,"label":[1340,972],"labelMinZoom":-1,"summary":"Illustrative Russian Republic entry for the Europe 1936 example. Its outline is traced from the supplied Kaiserreich / 1914 reference image, not a verified canonical 1936 border. Replace this description with your own lore.","claim":"Example contributor","flag":"assets/flags/russia.svg","shield":"assets/flags/russia.svg"},"geometry":{"type":"Polygon","coordinates":[[[1340.0,740.0],[1326.0,746.0],[1314.0,734.0],[1296.0,736.0],[1290.0,732.0],[1274.0,754.0],[1256.0,752.0],[1252.0,750.0],[1250.0,740.0],[1242.0,740.0],[1240.0,748.0],[1248.0,754.0],[1246.0,764.0],[1250.0,764.0],[1250.0,770.0],[1244.0,772.0],[1240.0,780.0],[1226.0,784.0],[1224.0,798.0],[1228.0,800.0],[1228.0,806.0],[1224.0,808.0],[1198.0,806.0],[1194.0,798.0],[1180.0,800.0],[1182.0,778.0],[1166.0,778.0],[1160.0,770.0],[1152.0,780.0],[1156.0,796.0],[1150.0,806.0],[1146.0,836.0],[1140.0,844.0],[1134.0,848.0],[1118.0,848.0],[1118.0,852.0],[1112.0,852.0],[1108.0,858.0],[1092.0,858.0],[1088.0,862.0],[1058.0,860.0],[1050.0,876.0],[1042.0,878.0],[1042.0,882.0],[1060.0,896.0],[1058.0,906.0],[1064.0,910.0],[1064.0,936.0],[1070.0,936.0],[1070.0,942.0],[1060.0,942.0],[1062.0,958.0],[1058.0,966.0],[1060.0,986.0],[1056.0,998.0],[1072.0,1002.0],[1074.0,1010.0],[1086.0,1010.0],[1086.0,1016.0],[1082.0,1018.0],[1086.0,1022.0],[1084.0,1030.0],[1094.0,1030.0],[1094.0,1034.0],[1106.0,1022.0],[1106.0,1016.0],[1112.0,1016.0],[1114.0,1030.0],[1128.0,1030.0],[1126.0,1044.0],[1130.0,1044.0],[1130.0,1050.0],[1110.0,1066.0],[1110.0,1074.0],[1104.0,1078.0],[1104.0,1086.0],[1110.0,1088.0],[1110.0,1094.0],[1106.0,1094.0],[1106.0,1124.0],[1086.0,1136.0],[1084.0,1146.0],[1088.0,1148.0],[1088.0,1154.0],[1080.0,1154.0],[1080.0,1158.0],[1070.0,1162.0],[1052.0,1158.0],[1044.0,1164.0],[1044.0,1174.0],[1036.0,1176.0],[1032.0,1204.0],[1038.0,1206.0],[1040.0,1218.0],[1028.0,1234.0],[1030.0,1258.0],[1004.0,1284.0],[992.0,1286.0],[988.0,1294.0],[988.0,1310.0],[984.0,1312.0],[992.0,1318.0],[992.0,1328.0],[1000.0,1334.0],[1000.0,1342.0],[1008.0,1340.0],[1006.0,1350.0],[1016.0,1350.0],[1016.0,1360.0],[1034.0,1356.0],[1032.0,1346.0],[1048.0,1346.0],[1048.0,1350.0],[1052.0,1350.0],[1052.0,1346.0],[1064.0,1346.0],[1064.0,1350.0],[1074.0,1350.0],[1102.0,1342.0],[1112.0,1334.0],[1128.0,1330.0],[1138.0,1332.0],[1146.0,1326.0],[1156.0,1326.0],[1158.0,1318.0],[1162.0,1318.0],[1172.0,1302.0],[1170.0,1282.0],[1156.0,1262.0],[1140.0,1254.0],[1120.0,1256.0],[1086.0,1252.0],[1084.0,1256.0],[1072.0,1256.0],[1072.0,1246.0],[1094.0,1238.0],[1102.0,1230.0],[1102.0,1210.0],[1112.0,1200.0],[1118.0,1184.0],[1134.0,1188.0],[1134.0,1182.0],[1140.0,1182.0],[1142.0,1178.0],[1164.0,1178.0],[1168.0,1190.0],[1162.0,1198.0],[1148.0,1194.0],[1142.0,1202.0],[1136.0,1202.0],[1136.0,1218.0],[1146.0,1220.0],[1150.0,1216.0],[1184.0,1214.0],[1188.0,1232.0],[1172.0,1240.0],[1170.0,1250.0],[1176.0,1256.0],[1178.0,1268.0],[1186.0,1274.0],[1188.0,1294.0],[1210.0,1296.0],[1212.0,1292.0],[1218.0,1292.0],[1216.0,1312.0],[1208.0,1324.0],[1198.0,1324.0],[1188.0,1362.0],[1172.0,1366.0],[1170.0,1370.0],[1184.0,1370.0],[1194.0,1378.0],[1206.0,1378.0],[1208.0,1374.0],[1218.0,1372.0],[1224.0,1364.0],[1212.0,1354.0],[1210.0,1336.0],[1236.0,1328.0],[1236.0,1332.0],[1242.0,1332.0],[1250.0,1340.0],[1242.0,1366.0],[1248.0,1370.0],[1248.0,1378.0],[1258.0,1390.0],[1262.0,1414.0],[1274.0,1422.0],[1284.0,1450.0],[1292.0,1454.0],[1288.0,1450.0],[1288.0,1440.0],[1296.0,1430.0],[1302.0,1430.0],[1308.0,1432.0],[1308.0,1448.0],[1312.0,1454.0],[1328.0,1460.0],[1330.0,1478.0],[1336.0,1488.0],[1346.0,1486.0],[1350.0,1474.0],[1360.0,1474.0],[1360.0,1482.0],[1352.0,1484.0],[1358.0,1490.0],[1358.0,1504.0],[1350.0,1504.0],[1338.0,1514.0],[1310.0,1514.0],[1304.0,1518.0],[1304.0,1530.0],[1336.0,1526.0],[1350.0,1532.0],[1354.0,1538.0],[1372.0,1544.0],[1372.0,1548.0],[1516.0,1548.0],[1516.0,1544.0],[1520.0,1544.0],[1518.0,1530.0],[1536.0,1538.0],[1532.0,1548.0],[1600.0,1548.0],[1600.0,582.0],[1588.0,578.0],[1578.0,564.0],[1572.0,564.0],[1572.0,568.0],[1540.0,570.0],[1530.0,568.0],[1520.0,560.0],[1500.0,558.0],[1466.0,566.0],[1420.0,562.0],[1418.0,566.0],[1398.0,566.0],[1394.0,572.0],[1386.0,574.0],[1376.0,572.0],[1376.0,584.0],[1392.0,586.0],[1394.0,614.0],[1402.0,618.0],[1402.0,624.0],[1388.0,624.0],[1384.0,626.0],[1384.0,632.0],[1394.0,638.0],[1394.0,644.0],[1402.0,646.0],[1408.0,654.0],[1408.0,662.0],[1402.0,662.0],[1398.0,654.0],[1382.0,646.0],[1382.0,664.0],[1374.0,674.0],[1380.0,678.0],[1382.0,686.0],[1396.0,688.0],[1396.0,692.0],[1404.0,696.0],[1404.0,708.0],[1394.0,708.0],[1394.0,724.0],[1398.0,728.0],[1394.0,740.0],[1350.0,742.0],[1348.0,736.0],[1340.0,740.0]]]}},{"type":"Feature","properties":{"id":"baltic","name":"United Baltic Duchy","kind":"country","color":"#4acdaf","culture":"Baltic","alliance":"reichspakt","canon":true,"label":[1006,928],"labelMinZoom":-1,"summary":"Illustrative United Baltic Duchy entry for the Europe 1936 example. Its outline is traced from the supplied Kaiserreich / 1914 reference image, not a verified canonical 1936 border. Replace this description with your own lore.","claim":"Example contributor","flag":"assets/flags/baltic.svg","shield":"assets/flags/baltic.svg"},"geometry":{"type":"Polygon","coordinates":[[[1006.0,926.0],[1006.0,932.0],[998.0,930.0],[992.0,932.0],[990.0,938.0],[984.0,938.0],[976.0,926.0],[968.0,924.0],[964.0,912.0],[964.0,922.0],[958.0,932.0],[964.0,932.0],[968.0,942.0],[960.0,948.0],[968.0,954.0],[976.0,952.0],[972.0,938.0],[980.0,938.0],[980.0,942.0],[986.0,942.0],[986.0,948.0],[978.0,954.0],[982.0,954.0],[982.0,962.0],[992.0,964.0],[996.0,972.0],[1014.0,976.0],[1014.0,982.0],[1022.0,984.0],[1052.0,982.0],[1060.0,986.0],[1058.0,968.0],[1046.0,966.0],[1046.0,958.0],[1050.0,958.0],[1052.0,950.0],[1068.0,932.0],[1062.0,924.0],[1064.0,912.0],[1060.0,908.0],[1060.0,896.0],[1044.0,884.0],[1044.0,878.0],[1050.0,876.0],[1056.0,862.0],[1076.0,862.0],[1068.0,860.0],[1066.0,854.0],[1056.0,854.0],[1056.0,858.0],[1046.0,864.0],[1032.0,864.0],[1028.0,870.0],[1022.0,870.0],[1014.0,864.0],[972.0,862.0],[956.0,848.0],[952.0,856.0],[952.0,874.0],[958.0,878.0],[956.0,890.0],[960.0,900.0],[976.0,908.0],[994.0,886.0],[1004.0,886.0],[1010.0,894.0],[1006.0,926.0]]]}},{"type":"Feature","properties":{"id":"lithuania","name":"Lithuania","kind":"country","color":"#d75413","culture":"Lithuanian","alliance":"reichspakt","canon":true,"label":[1014,806],"labelMinZoom":-1,"summary":"Illustrative Lithuania entry for the Europe 1936 example. Its outline is traced from the supplied Kaiserreich / 1914 reference image, not a verified canonical 1936 border. Replace this description with your own lore.","claim":"Example contributor","flag":"assets/flags/lithuania.svg","shield":"assets/flags/lithuania.svg"},"geometry":{"type":"Polygon","coordinates":[[[996.0,804.0],[996.0,814.0],[992.0,814.0],[990.0,820.0],[972.0,824.0],[964.0,840.0],[956.0,842.0],[956.0,846.0],[974.0,862.0],[1020.0,864.0],[1022.0,870.0],[1028.0,870.0],[1030.0,864.0],[1044.0,864.0],[1066.0,850.0],[1068.0,840.0],[1064.0,838.0],[1058.0,810.0],[1056.0,796.0],[1058.0,790.0],[1062.0,790.0],[1060.0,776.0],[1064.0,774.0],[1064.0,768.0],[1054.0,760.0],[1048.0,740.0],[1032.0,726.0],[1032.0,722.0],[1002.0,732.0],[1010.0,750.0],[1008.0,756.0],[998.0,756.0],[1006.0,774.0],[1000.0,774.0],[1000.0,782.0],[994.0,788.0],[998.0,790.0],[996.0,804.0]]]}},{"type":"Feature","properties":{"id":"poland","name":"Poland","kind":"country","color":"#ce659a","culture":"Polish","alliance":"independent","canon":true,"label":[974,694],"labelMinZoom":-1,"summary":"Illustrative Poland entry for the Europe 1936 example. Its outline is traced from the supplied Kaiserreich / 1914 reference image, not a verified canonical 1936 border. Replace this description with your own lore.","claim":"Example contributor","flag":"assets/flags/poland.svg","shield":"assets/flags/poland.svg"},"geometry":{"type":"Polygon","coordinates":[[[982.0,652.0],[970.0,642.0],[942.0,644.0],[942.0,658.0],[932.0,662.0],[930.0,668.0],[920.0,674.0],[916.0,694.0],[906.0,706.0],[910.0,714.0],[920.0,720.0],[926.0,740.0],[948.0,748.0],[958.0,746.0],[960.0,752.0],[986.0,760.0],[994.0,768.0],[1002.0,778.0],[1006.0,768.0],[998.0,762.0],[998.0,756.0],[1008.0,756.0],[1010.0,750.0],[1002.0,732.0],[1004.0,728.0],[1030.0,722.0],[1030.0,704.0],[1034.0,702.0],[1034.0,694.0],[1046.0,684.0],[1048.0,670.0],[1028.0,658.0],[1014.0,658.0],[1012.0,668.0],[998.0,668.0],[996.0,662.0],[982.0,652.0]]]}},{"type":"Feature","properties":{"id":"belarus","name":"White Ruthenia","kind":"country","color":"#c75bdb","culture":"Belarusian","alliance":"reichspakt","canon":true,"label":[1108,804],"labelMinZoom":-1,"summary":"Illustrative White Ruthenia entry for the Europe 1936 example. Its outline is traced from the supplied Kaiserreich / 1914 reference image, not a verified canonical 1936 border. Replace this description with your own lore.","claim":"Example contributor","flag":"assets/flags/belarus.svg","shield":"assets/flags/belarus.svg"},"geometry":{"type":"Polygon","coordinates":[[[1150.0,804.0],[1156.0,794.0],[1152.0,778.0],[1178.0,752.0],[1178.0,724.0],[1170.0,730.0],[1156.0,728.0],[1154.0,724.0],[1150.0,728.0],[1140.0,728.0],[1140.0,722.0],[1120.0,724.0],[1120.0,720.0],[1092.0,724.0],[1082.0,714.0],[1074.0,716.0],[1072.0,710.0],[1066.0,710.0],[1064.0,720.0],[1070.0,720.0],[1072.0,726.0],[1072.0,736.0],[1066.0,738.0],[1056.0,744.0],[1052.0,752.0],[1064.0,766.0],[1064.0,776.0],[1060.0,776.0],[1062.0,790.0],[1058.0,790.0],[1056.0,804.0],[1062.0,810.0],[1064.0,836.0],[1068.0,840.0],[1064.0,854.0],[1068.0,854.0],[1070.0,860.0],[1088.0,862.0],[1094.0,856.0],[1106.0,858.0],[1118.0,848.0],[1128.0,850.0],[1130.0,846.0],[1136.0,846.0],[1136.0,842.0],[1146.0,836.0],[1150.0,804.0]]]}},{"type":"Feature","properties":{"id":"ukraine","name":"Ukraine","kind":"country","color":"#aa98e6","culture":"Ukrainian","alliance":"reichspakt","canon":true,"label":[1224,660],"labelMinZoom":-1,"summary":"Illustrative Ukraine entry for the Europe 1936 example. Its outline is traced from the supplied Kaiserreich / 1914 reference image, not a verified canonical 1936 border. Replace this description with your own lore.","claim":"Example contributor","flag":"assets/flags/ukraine.svg","shield":"assets/flags/ukraine.svg"},"geometry":{"type":"Polygon","coordinates":[[[1232.0,578.0],[1228.0,576.0],[1228.0,564.0],[1224.0,560.0],[1220.0,566.0],[1204.0,570.0],[1202.0,576.0],[1196.0,576.0],[1196.0,580.0],[1184.0,588.0],[1178.0,598.0],[1178.0,608.0],[1138.0,622.0],[1118.0,618.0],[1118.0,614.0],[1112.0,616.0],[1106.0,626.0],[1102.0,652.0],[1086.0,652.0],[1076.0,660.0],[1074.0,668.0],[1062.0,668.0],[1058.0,674.0],[1050.0,674.0],[1030.0,706.0],[1030.0,716.0],[1032.0,724.0],[1042.0,730.0],[1048.0,744.0],[1054.0,746.0],[1072.0,734.0],[1070.0,720.0],[1064.0,720.0],[1066.0,710.0],[1072.0,710.0],[1076.0,716.0],[1086.0,716.0],[1094.0,724.0],[1114.0,720.0],[1126.0,726.0],[1142.0,726.0],[1144.0,730.0],[1150.0,726.0],[1170.0,730.0],[1170.0,726.0],[1180.0,724.0],[1176.0,754.0],[1162.0,766.0],[1162.0,772.0],[1168.0,778.0],[1180.0,776.0],[1180.0,800.0],[1196.0,798.0],[1198.0,806.0],[1230.0,806.0],[1226.0,800.0],[1226.0,784.0],[1240.0,780.0],[1246.0,770.0],[1252.0,770.0],[1252.0,766.0],[1248.0,766.0],[1248.0,754.0],[1244.0,752.0],[1242.0,740.0],[1252.0,740.0],[1256.0,752.0],[1272.0,754.0],[1284.0,744.0],[1286.0,734.0],[1316.0,736.0],[1326.0,746.0],[1332.0,746.0],[1338.0,738.0],[1370.0,744.0],[1390.0,740.0],[1394.0,744.0],[1394.0,738.0],[1398.0,736.0],[1394.0,708.0],[1402.0,710.0],[1406.0,702.0],[1402.0,694.0],[1390.0,686.0],[1382.0,686.0],[1374.0,676.0],[1374.0,670.0],[1382.0,664.0],[1380.0,646.0],[1372.0,644.0],[1370.0,636.0],[1366.0,636.0],[1360.0,626.0],[1352.0,624.0],[1350.0,618.0],[1340.0,616.0],[1338.0,608.0],[1320.0,592.0],[1320.0,578.0],[1334.0,576.0],[1338.0,566.0],[1348.0,566.0],[1352.0,572.0],[1360.0,574.0],[1362.0,580.0],[1370.0,580.0],[1372.0,570.0],[1362.0,562.0],[1350.0,564.0],[1344.0,550.0],[1330.0,542.0],[1330.0,534.0],[1322.0,526.0],[1308.0,528.0],[1310.0,544.0],[1306.0,550.0],[1278.0,548.0],[1298.0,570.0],[1298.0,578.0],[1282.0,578.0],[1274.0,572.0],[1256.0,574.0],[1256.0,584.0],[1250.0,584.0],[1250.0,578.0],[1248.0,582.0],[1232.0,578.0]]]}},{"type":"Feature","properties":{"id":"romania","name":"Romania","kind":"country","color":"#d75413","culture":"Romanian","alliance":"independent","canon":true,"label":[1146,546],"labelMinZoom":-1,"summary":"Illustrative Romania entry for the Europe 1936 example. Its outline is traced from the supplied Kaiserreich / 1914 reference image, not a verified canonical 1936 border. Replace this description with your own lore.","claim":"Example contributor","flag":"assets/flags/romania.svg","shield":"assets/flags/romania.svg"},"geometry":{"type":"Polygon","coordinates":[[[1130.0,544.0],[1120.0,560.0],[1110.0,566.0],[1118.0,586.0],[1114.0,590.0],[1114.0,604.0],[1106.0,614.0],[1120.0,614.0],[1122.0,618.0],[1136.0,622.0],[1138.0,618.0],[1148.0,618.0],[1174.0,608.0],[1182.0,588.0],[1192.0,584.0],[1192.0,578.0],[1226.0,558.0],[1224.0,550.0],[1216.0,546.0],[1212.0,538.0],[1212.0,532.0],[1216.0,530.0],[1216.0,514.0],[1174.0,522.0],[1174.0,510.0],[1180.0,492.0],[1178.0,482.0],[1166.0,472.0],[1156.0,472.0],[1154.0,468.0],[1144.0,466.0],[1130.0,448.0],[1098.0,444.0],[1074.0,446.0],[1062.0,442.0],[1062.0,452.0],[1050.0,458.0],[1050.0,484.0],[1072.0,494.0],[1076.0,500.0],[1090.0,502.0],[1092.0,508.0],[1132.0,508.0],[1134.0,522.0],[1138.0,524.0],[1138.0,538.0],[1130.0,544.0]]]}},{"type":"Feature","properties":{"id":"serbia","name":"Serbia","kind":"country","color":"#c75bdb","culture":"Serbian","alliance":"independent","canon":true,"label":[1002,414],"labelMinZoom":-1,"summary":"Illustrative Serbia entry for the Europe 1936 example. Its outline is traced from the supplied Kaiserreich / 1914 reference image, not a verified canonical 1936 border. Replace this description with your own lore.","claim":"Example contributor","flag":"assets/flags/serbia.svg","shield":"assets/flags/serbia.svg"},"geometry":{"type":"Polygon","coordinates":[[[1024.0,414.0],[1026.0,408.0],[1042.0,396.0],[1044.0,388.0],[1034.0,378.0],[1022.0,376.0],[1020.0,366.0],[1016.0,366.0],[1014.0,376.0],[1004.0,380.0],[1004.0,384.0],[986.0,384.0],[980.0,370.0],[976.0,370.0],[968.0,378.0],[968.0,384.0],[962.0,384.0],[958.0,390.0],[958.0,398.0],[962.0,398.0],[962.0,406.0],[966.0,408.0],[968.0,416.0],[980.0,420.0],[980.0,426.0],[974.0,430.0],[980.0,432.0],[980.0,438.0],[968.0,444.0],[974.0,468.0],[982.0,466.0],[982.0,460.0],[996.0,460.0],[1000.0,466.0],[1016.0,460.0],[1018.0,444.0],[1024.0,442.0],[1026.0,434.0],[1026.0,428.0],[1020.0,426.0],[1024.0,414.0]]]}},{"type":"Feature","properties":{"id":"bulgaria","name":"Bulgaria","kind":"country","color":"#24acd7","culture":"Bulgarian","alliance":"independent","canon":true,"label":[1114,428],"labelMinZoom":-1,"summary":"Illustrative Bulgaria entry for the Europe 1936 example. Its outline is traced from the supplied Kaiserreich / 1914 reference image, not a verified canonical 1936 border. Replace this description with your own lore.","claim":"Example contributor","flag":"assets/flags/bulgaria.svg","shield":"assets/flags/bulgaria.svg"},"geometry":{"type":"Polygon","coordinates":[[[1114.0,448.0],[1134.0,450.0],[1142.0,464.0],[1158.0,472.0],[1168.0,472.0],[1180.0,484.0],[1174.0,512.0],[1178.0,522.0],[1182.0,518.0],[1198.0,518.0],[1216.0,512.0],[1214.0,508.0],[1200.0,504.0],[1204.0,456.0],[1194.0,454.0],[1194.0,430.0],[1188.0,426.0],[1188.0,420.0],[1202.0,406.0],[1192.0,400.0],[1178.0,404.0],[1174.0,398.0],[1160.0,394.0],[1160.0,386.0],[1170.0,386.0],[1174.0,378.0],[1168.0,374.0],[1164.0,352.0],[1134.0,354.0],[1130.0,350.0],[1130.0,340.0],[1124.0,342.0],[1124.0,350.0],[1118.0,350.0],[1118.0,344.0],[1114.0,342.0],[1106.0,342.0],[1102.0,348.0],[1088.0,348.0],[1088.0,344.0],[1080.0,342.0],[1078.0,326.0],[1052.0,326.0],[1050.0,320.0],[1038.0,320.0],[1032.0,334.0],[1020.0,338.0],[1014.0,352.0],[1020.0,374.0],[1034.0,378.0],[1044.0,386.0],[1044.0,394.0],[1030.0,404.0],[1026.0,416.0],[1020.0,418.0],[1020.0,426.0],[1026.0,426.0],[1026.0,440.0],[1018.0,446.0],[1018.0,458.0],[1014.0,462.0],[1018.0,468.0],[1036.0,464.0],[1044.0,464.0],[1046.0,470.0],[1054.0,468.0],[1050.0,458.0],[1064.0,450.0],[1062.0,442.0],[1114.0,448.0]]]}},{"type":"Feature","properties":{"id":"greece","name":"Greece","kind":"country","color":"#aa98e6","culture":"Greek","alliance":"independent","canon":true,"label":[1088,266],"labelMinZoom":-1,"summary":"Illustrative Greece entry for the Europe 1936 example. Its outline is traced from the supplied Kaiserreich / 1914 reference image, not a verified canonical 1936 border. Replace this description with your own lore.","claim":"Example contributor","flag":"assets/flags/greece.svg","shield":"assets/flags/greece.svg"},"geometry":{"type":"Polygon","coordinates":[[[1094.0,278.0],[1104.0,280.0],[1112.0,272.0],[1126.0,272.0],[1134.0,258.0],[1128.0,256.0],[1132.0,238.0],[1122.0,244.0],[1106.0,244.0],[1108.0,230.0],[1118.0,226.0],[1108.0,222.0],[1108.0,226.0],[1098.0,228.0],[1098.0,220.0],[1106.0,212.0],[1112.0,194.0],[1108.0,194.0],[1104.0,202.0],[1098.0,202.0],[1094.0,188.0],[1084.0,206.0],[1078.0,206.0],[1078.0,196.0],[1072.0,198.0],[1068.0,204.0],[1068.0,220.0],[1058.0,226.0],[1050.0,232.0],[1056.0,236.0],[1056.0,242.0],[1066.0,244.0],[1066.0,250.0],[1052.0,250.0],[1048.0,246.0],[1042.0,260.0],[1036.0,260.0],[1032.0,254.0],[1036.0,270.0],[1020.0,278.0],[1018.0,284.0],[1018.0,300.0],[1028.0,304.0],[1028.0,314.0],[1034.0,324.0],[1038.0,320.0],[1050.0,320.0],[1052.0,326.0],[1076.0,326.0],[1076.0,312.0],[1102.0,288.0],[1100.0,284.0],[1096.0,290.0],[1090.0,290.0],[1094.0,278.0]]]}},{"type":"Feature","properties":{"id":"ottoman","name":"Ottoman Empire","kind":"country","color":"#4acdaf","culture":"Anatolian","alliance":"ottoman","canon":true,"label":[1388,318],"labelMinZoom":-1,"summary":"Illustrative Ottoman Empire entry for the Europe 1936 example. Its outline is traced from the supplied Kaiserreich / 1914 reference image, not a verified canonical 1936 border. Replace this description with your own lore.","claim":"Example contributor","flag":"assets/flags/ottoman.svg","shield":"assets/flags/ottoman.svg"},"geometry":{"type":"Polygon","coordinates":[[[1428.0,286.0],[1420.0,280.0],[1414.0,262.0],[1384.0,242.0],[1368.0,244.0],[1358.0,254.0],[1326.0,256.0],[1316.0,252.0],[1318.0,230.0],[1308.0,230.0],[1302.0,222.0],[1280.0,224.0],[1276.0,234.0],[1264.0,232.0],[1262.0,236.0],[1256.0,236.0],[1250.0,226.0],[1244.0,226.0],[1244.0,222.0],[1230.0,224.0],[1244.0,230.0],[1246.0,238.0],[1226.0,234.0],[1226.0,228.0],[1220.0,224.0],[1220.0,230.0],[1224.0,230.0],[1224.0,238.0],[1230.0,238.0],[1230.0,244.0],[1220.0,246.0],[1218.0,254.0],[1200.0,252.0],[1202.0,258.0],[1216.0,258.0],[1216.0,266.0],[1204.0,266.0],[1204.0,270.0],[1184.0,270.0],[1178.0,266.0],[1178.0,274.0],[1174.0,276.0],[1176.0,280.0],[1182.0,280.0],[1182.0,274.0],[1190.0,272.0],[1186.0,284.0],[1196.0,284.0],[1200.0,296.0],[1196.0,296.0],[1196.0,304.0],[1190.0,304.0],[1190.0,296.0],[1186.0,294.0],[1170.0,298.0],[1170.0,302.0],[1176.0,304.0],[1170.0,338.0],[1176.0,344.0],[1176.0,350.0],[1164.0,348.0],[1168.0,358.0],[1166.0,372.0],[1170.0,372.0],[1172.0,384.0],[1160.0,388.0],[1160.0,392.0],[1174.0,398.0],[1178.0,404.0],[1194.0,402.0],[1202.0,406.0],[1204.0,398.0],[1220.0,388.0],[1260.0,390.0],[1266.0,396.0],[1282.0,394.0],[1294.0,400.0],[1294.0,408.0],[1318.0,434.0],[1326.0,436.0],[1336.0,446.0],[1366.0,452.0],[1372.0,460.0],[1388.0,450.0],[1394.0,450.0],[1400.0,458.0],[1404.0,458.0],[1410.0,448.0],[1420.0,448.0],[1426.0,454.0],[1432.0,450.0],[1450.0,450.0],[1450.0,454.0],[1472.0,454.0],[1484.0,466.0],[1494.0,470.0],[1514.0,472.0],[1516.0,478.0],[1522.0,480.0],[1524.0,488.0],[1528.0,488.0],[1536.0,500.0],[1538.0,520.0],[1556.0,524.0],[1558.0,520.0],[1574.0,518.0],[1578.0,514.0],[1596.0,516.0],[1596.0,520.0],[1600.0,520.0],[1600.0,252.0],[1576.0,240.0],[1568.0,230.0],[1560.0,196.0],[1548.0,182.0],[1550.0,160.0],[1544.0,136.0],[1544.0,104.0],[1552.0,86.0],[1552.0,70.0],[1564.0,58.0],[1578.0,54.0],[1578.0,42.0],[1586.0,32.0],[1600.0,30.0],[1600.0,0.0],[1526.0,0.0],[1514.0,74.0],[1512.0,114.0],[1494.0,106.0],[1496.0,122.0],[1492.0,122.0],[1488.0,130.0],[1486.0,150.0],[1480.0,152.0],[1482.0,214.0],[1486.0,218.0],[1486.0,228.0],[1480.0,232.0],[1476.0,252.0],[1468.0,254.0],[1468.0,274.0],[1462.0,278.0],[1466.0,300.0],[1458.0,300.0],[1448.0,284.0],[1428.0,286.0]]]}},{"type":"Feature","properties":{"id":"iceland","name":"Iceland","kind":"country","color":"#d75413","culture":"Icelandic","alliance":"independent","canon":true,"label":[328,1214],"labelMinZoom":-1,"summary":"Illustrative Iceland entry for the Europe 1936 example. Its outline is traced from the supplied Kaiserreich / 1914 reference image, not a verified canonical 1936 border. Replace this description with your own lore.","claim":"Example contributor","flag":"assets/flags/iceland.svg","shield":"assets/flags/iceland.svg"},"geometry":{"type":"Polygon","coordinates":[[[330.0,1176.0],[320.0,1176.0],[318.0,1170.0],[304.0,1170.0],[284.0,1186.0],[282.0,1196.0],[276.0,1202.0],[254.0,1208.0],[256.0,1218.0],[258.0,1214.0],[270.0,1216.0],[272.0,1240.0],[262.0,1246.0],[252.0,1246.0],[250.0,1252.0],[276.0,1250.0],[276.0,1254.0],[284.0,1254.0],[282.0,1264.0],[260.0,1268.0],[256.0,1276.0],[270.0,1282.0],[276.0,1290.0],[286.0,1290.0],[288.0,1296.0],[298.0,1292.0],[300.0,1280.0],[304.0,1266.0],[298.0,1262.0],[298.0,1254.0],[314.0,1254.0],[316.0,1268.0],[324.0,1268.0],[324.0,1260.0],[340.0,1264.0],[342.0,1260.0],[350.0,1260.0],[354.0,1252.0],[366.0,1254.0],[366.0,1250.0],[372.0,1250.0],[376.0,1262.0],[384.0,1260.0],[384.0,1248.0],[398.0,1250.0],[398.0,1246.0],[392.0,1244.0],[392.0,1238.0],[396.0,1236.0],[396.0,1222.0],[404.0,1216.0],[400.0,1210.0],[400.0,1198.0],[390.0,1190.0],[382.0,1190.0],[380.0,1184.0],[372.0,1180.0],[352.0,1180.0],[344.0,1174.0],[330.0,1176.0]]]}}]}