{"type":"FeatureCollection","features":[{"type":"Feature","properties":{"name":"Mexico City","tier":"capital","country":"Mexico","admin1":"Distrito Federal","population":19028000},"geometry":{"type":"Point","coordinates":[-99.132934,19.444388]}},{"type":"Feature","properties":{"name":"Ottawa","tier":"capital","country":"Canada","admin1":"Ontario","population":1145000},"geometry":{"type":"Point","coordinates":[-75.701961,45.418643]}},{"type":"Feature","properties":{"name":"Washington, D.C.","tier":"capital","country":"United States of America","admin1":"District of Columbia","population":4338000},"geometry":{"type":"Point","coordinates":[-77.011364,38.901495]}},{"type":"Feature","properties":{"name":"Aguascalientes","tier":"province","country":"Mexico","admin1":"Aguascalientes","population":869000},"geometry":{"type":"Point","coordinates":[-102.292359,21.881406]}},{"type":"Feature","properties":{"name":"Albany","tier":"province","country":"United States of America","admin1":"New York","population":870716},"geometry":{"type":"Point","coordinates":[-73.819949,42.670017]}},{"type":"Feature","properties":{"name":"Annapolis","tier":"province","country":"United States of America","admin1":"Maryland","population":81300},"geometry":{"type":"Point","coordinates":[-76.492499,38.97833]}},{"type":"Feature","properties":{"name":"Atlanta","tier":"province","country":"United States of America","admin1":"Georgia","population":4506000},"geometry":{"type":"Point","coordinates":[-84.401895,33.83196]}},{"type":"Feature","properties":{"name":"Augusta","tier":"province","country":"United States of America","admin1":"Maine","population":24042},"geometry":{"type":"Point","coordinates":[-69.779989,44.310563]}},{"type":"Feature","properties":{"name":"Austin","tier":"province","country":"United States of America","admin1":"Texas","population":1161000},"geometry":{"type":"Point","coordinates":[-97.744724,30.268896]}},{"type":"Feature","properties":{"name":"Baton Rouge","tier":"province","country":"United States of America","admin1":"Louisiana","population":422072},"geometry":{"type":"Point","coordinates":[-91.140158,30.457946]}},{"type":"Feature","properties":{"name":"Bismarck","tier":"province","country":"United States of America","admin1":"North Dakota","population":63871},"geometry":{"type":"Point","coordinates":[-100.783316,46.808317]}},{"type":"Feature","properties":{"name":"Boise","tier":"province","country":"United States of America","admin1":"Idaho","population":338071},"geometry":{"type":"Point","coordinates":[-116.22749,43.60859]}},{"type":"Feature","properties":{"name":"Boston","tier":"province","country":"United States of America","admin1":"Massachusetts","population":4467000},"geometry":{"type":"Point","coordinates":[-71.07196,42.331906]}},{"type":"Feature","properties":{"name":"Campeche","tier":"province","country":"Mexico","admin1":"Campeche","population":205212},"geometry":{"type":"Point","coordinates":[-90.499991,19.82999]}},{"type":"Feature","properties":{"name":"Carson City","tier":"province","country":"United States of America","admin1":"Nevada","population":57341},"geometry":{"type":"Point","coordinates":[-119.766395,39.163849]}},{"type":"Feature","properties":{"name":"Charleston","tier":"province","country":"United States of America","admin1":"West Virginia","population":123799},"geometry":{"type":"Point","coordinates":[-81.632728,38.349738]}},{"type":"Feature","properties":{"name":"Charlottetown","tier":"province","country":"Canada","admin1":"Prince Edward Island","population":42402},"geometry":{"type":"Point","coordinates":[-63.131325,46.249282]}},{"type":"Feature","properties":{"name":"Chetumal","tier":"province","country":"Mexico","admin1":"Quintana Roo","population":154517},"geometry":{"type":"Point","coordinates":[-88.299996,18.500019]}},{"type":"Feature","properties":{"name":"Cheyenne","tier":"province","country":"United States of America","admin1":"Wyoming","population":72927},"geometry":{"type":"Point","coordinates":[-104.819711,41.140007]}},{"type":"Feature","properties":{"name":"Chihuahua","tier":"province","country":"Mexico","admin1":"Chihuahua","population":793000},"geometry":{"type":"Point","coordinates":[-106.086928,28.646927]}},{"type":"Feature","properties":{"name":"Chilpancingo","tier":"province","country":"Mexico","admin1":"Guerrero","population":182387},"geometry":{"type":"Point","coordinates":[-99.50001,17.549974]}},{"type":"Feature","properties":{"name":"Ciudad Victoria","tier":"province","country":"Mexico","admin1":"Tamaulipas","population":274900},"geometry":{"type":"Point","coordinates":[-99.129981,23.719959]}},{"type":"Feature","properties":{"name":"Colima","tier":"province","country":"Mexico","admin1":"Colima","population":223287},"geometry":{"type":"Point","coordinates":[-103.72001,19.229975]}},{"type":"Feature","properties":{"name":"Columbia","tier":"province","country":"United States of America","admin1":"South Carolina","population":398093},"geometry":{"type":"Point","coordinates":[-80.899982,34.039975]}},{"type":"Feature","properties":{"name":"Columbus","tier":"province","country":"United States of America","admin1":"Ohio","population":1270000},"geometry":{"type":"Point","coordinates":[-82.991956,39.98192]}},{"type":"Feature","properties":{"name":"Concord","tier":"province","country":"United States of America","admin1":"New Hampshire","population":44606},"geometry":{"type":"Point","coordinates":[-71.538047,43.208072]}},{"type":"Feature","properties":{"name":"Cuernavaca","tier":"province","country":"Mexico","admin1":"Morelos","population":834001},"geometry":{"type":"Point","coordinates":[-99.24,18.921105]}},{"type":"Feature","properties":{"name":"Culiac\u00e1n","tier":"province","country":"Mexico","admin1":"Sinaloa","population":809000},"geometry":{"type":"Point","coordinates":[-107.381914,24.831941]}},{"type":"Feature","properties":{"name":"Denver","tier":"province","country":"United States of America","admin1":"Colorado","population":2313000},"geometry":{"type":"Point","coordinates":[-104.985962,39.741134]}},{"type":"Feature","properties":{"name":"Des Moines","tier":"province","country":"United States of America","admin1":"Iowa","population":380655},"geometry":{"type":"Point","coordinates":[-93.619981,41.57998]}},{"type":"Feature","properties":{"name":"Dover","tier":"province","country":"United States of America","admin1":"Delaware","population":76039},"geometry":{"type":"Point","coordinates":[-75.524703,39.158087]}},{"type":"Feature","properties":{"name":"Durango","tier":"province","country":"Mexico","admin1":"Durango","population":457140},"geometry":{"type":"Point","coordinates":[-104.67003,24.031103]}},{"type":"Feature","properties":{"name":"Edmonton","tier":"province","country":"Canada","admin1":"Alberta","population":1058000},"geometry":{"type":"Point","coordinates":[-113.501928,53.551971]}},{"type":"Feature","properties":{"name":"Frankfort","tier":"province","country":"United States of America","admin1":"Kentucky","population":36688},"geometry":{"type":"Point","coordinates":[-84.873357,38.200807]}},{"type":"Feature","properties":{"name":"Fredericton","tier":"province","country":"Canada","admin1":"New Brunswick","population":52337},"geometry":{"type":"Point","coordinates":[-66.633308,45.949998]}},{"type":"Feature","properties":{"name":"Guadalajara","tier":"province","country":"Mexico","admin1":"Jalisco","population":4198000},"geometry":{"type":"Point","coordinates":[-103.33198,20.671962]}},{"type":"Feature","properties":{"name":"Guanajuato","tier":"province","country":"Mexico","admin1":"Guanajuato","population":112200},"geometry":{"type":"Point","coordinates":[-101.279979,21.020408]}},{"type":"Feature","properties":{"name":"Halifax","tier":"province","country":"Canada","admin1":"Nova Scotia","population":359111},"geometry":{"type":"Point","coordinates":[-63.600005,44.650025]}},{"type":"Feature","properties":{"name":"Harrisburg","tier":"province","country":"United States of America","admin1":"Pennsylvania","population":528892},"geometry":{"type":"Point","coordinates":[-76.884749,40.2736]}},{"type":"Feature","properties":{"name":"Hartford","tier":"province","country":"United States of America","admin1":"Connecticut","population":913000},"geometry":{"type":"Point","coordinates":[-72.681913,41.771966]}},{"type":"Feature","properties":{"name":"Helena","tier":"province","country":"United States of America","admin1":"Montana","population":38725},"geometry":{"type":"Point","coordinates":[-112.035291,46.592749]}},{"type":"Feature","properties":{"name":"Hermosillo","tier":"province","country":"Mexico","admin1":"Sonora","population":595811},"geometry":{"type":"Point","coordinates":[-110.954065,29.098881]}},{"type":"Feature","properties":{"name":"Honolulu","tier":"province","country":"United States of America","admin1":"Hawaii","population":786000},"geometry":{"type":"Point","coordinates":[-157.859944,21.308822]}},{"type":"Feature","properties":{"name":"Indianapolis","tier":"province","country":"United States of America","admin1":"Indiana","population":1436000},"geometry":{"type":"Point","coordinates":[-86.171994,39.751934]}},{"type":"Feature","properties":{"name":"Iqaluit","tier":"province","country":"Canada","admin1":"Nunavut","population":6124},"geometry":{"type":"Point","coordinates":[-68.500192,63.750459]}},{"type":"Feature","properties":{"name":"Jackson","tier":"province","country":"United States of America","admin1":"Mississippi","population":250902},"geometry":{"type":"Point","coordinates":[-90.184997,32.298815]}},{"type":"Feature","properties":{"name":"Jefferson City","tier":"province","country":"United States of America","admin1":"Missouri","population":55139},"geometry":{"type":"Point","coordinates":[-92.173325,38.576623]}},{"type":"Feature","properties":{"name":"Juneau","tier":"province","country":"United States of America","admin1":"Alaska","population":30711},"geometry":{"type":"Point","coordinates":[-134.419997,58.314127]}},{"type":"Feature","properties":{"name":"La Paz","tier":"province","country":"Mexico","admin1":"Baja California Sur","population":189767},"geometry":{"type":"Point","coordinates":[-110.319995,24.139959]}},{"type":"Feature","properties":{"name":"Lansing","tier":"province","country":"United States of America","admin1":"Michigan","population":279952},"geometry":{"type":"Point","coordinates":[-84.546736,42.733527]}},{"type":"Feature","properties":{"name":"Lincoln","tier":"province","country":"United States of America","admin1":"Nebraska","population":246220},"geometry":{"type":"Point","coordinates":[-96.680001,40.819975]}},{"type":"Feature","properties":{"name":"Little Rock","tier":"province","country":"United States of America","admin1":"Arkansas","population":270893},"geometry":{"type":"Point","coordinates":[-92.331093,34.736083]}},{"type":"Feature","properties":{"name":"Madison","tier":"province","country":"United States of America","admin1":"Wisconsin","population":327447},"geometry":{"type":"Point","coordinates":[-89.401117,43.073016]}},{"type":"Feature","properties":{"name":"Mexicali","tier":"province","country":"Mexico","admin1":"Baja California","population":885000},"geometry":{"type":"Point","coordinates":[-115.481962,32.651928]}},{"type":"Feature","properties":{"name":"Monterrey","tier":"province","country":"Mexico","admin1":"Nuevo Le\u00f3n","population":3712000},"geometry":{"type":"Point","coordinates":[-100.331931,25.671941]}},{"type":"Feature","properties":{"name":"Montgomery","tier":"province","country":"United States of America","admin1":"Alabama","population":198325},"geometry":{"type":"Point","coordinates":[-86.279189,32.361602]}},{"type":"Feature","properties":{"name":"Montpelier","tier":"province","country":"United States of America","admin1":"Vermont","population":8538},"geometry":{"type":"Point","coordinates":[-72.575813,44.259972]}},{"type":"Feature","properties":{"name":"Morelia","tier":"province","country":"Mexico","admin1":"Michoac\u00e1n","population":644306},"geometry":{"type":"Point","coordinates":[-101.189493,19.733381]}},{"type":"Feature","properties":{"name":"M\u00e9rida","tier":"province","country":"Mexico","admin1":"Yucat\u00e1n","population":965000},"geometry":{"type":"Point","coordinates":[-89.618579,20.968585]}},{"type":"Feature","properties":{"name":"Nashville","tier":"province","country":"United States of America","admin1":"Tennessee","population":877000},"geometry":{"type":"Point","coordinates":[-86.781931,36.17192]}},{"type":"Feature","properties":{"name":"Oaxaca","tier":"province","country":"Mexico","admin1":"Oaxaca","population":530728},"geometry":{"type":"Point","coordinates":[-96.66995,17.08269]}},{"type":"Feature","properties":{"name":"Oklahoma City","tier":"province","country":"United States of America","admin1":"Oklahoma","population":788000},"geometry":{"type":"Point","coordinates":[-97.520629,35.471989]}},{"type":"Feature","properties":{"name":"Olympia","tier":"province","country":"United States of America","admin1":"Washington","population":156984},"geometry":{"type":"Point","coordinates":[-122.899434,47.038045]}},{"type":"Feature","properties":{"name":"Pachuca","tier":"province","country":"Mexico","admin1":"Hidalgo","population":319581},"geometry":{"type":"Point","coordinates":[-98.730031,20.170434]}},{"type":"Feature","properties":{"name":"Phoenix","tier":"province","country":"United States of America","admin1":"Arizona","population":3551000},"geometry":{"type":"Point","coordinates":[-112.071938,33.541926]}},{"type":"Feature","properties":{"name":"Pierre","tier":"province","country":"United States of America","admin1":"South Dakota","population":13879},"geometry":{"type":"Point","coordinates":[-100.350552,44.368337]}},{"type":"Feature","properties":{"name":"Providence","tier":"province","country":"United States of America","admin1":"Rhode Island","population":1277000},"geometry":{"type":"Point","coordinates":[-71.416926,41.823048]}},{"type":"Feature","properties":{"name":"Puebla","tier":"province","country":"Mexico","admin1":"Puebla","population":2195000},"geometry":{"type":"Point","coordinates":[-98.201983,19.051906]}},{"type":"Feature","properties":{"name":"Quer\u00e9taro","tier":"province","country":"Mexico","admin1":"Quer\u00e9taro","population":961000},"geometry":{"type":"Point","coordinates":[-100.381928,20.631964]}},{"type":"Feature","properties":{"name":"Qu\u00e9bec","tier":"province","country":"Canada","admin1":"Qu\u00e9bec","population":624177},"geometry":{"type":"Point","coordinates":[-71.24561,46.839969]}},{"type":"Feature","properties":{"name":"Raleigh","tier":"province","country":"United States of America","admin1":"North Carolina","population":1163515},"geometry":{"type":"Point","coordinates":[-78.644693,35.818781]}},{"type":"Feature","properties":{"name":"Regina","tier":"province","country":"Canada","admin1":"Saskatchewan","population":176183},"geometry":{"type":"Point","coordinates":[-104.61701,50.450033]}},{"type":"Feature","properties":{"name":"Richmond","tier":"province","country":"United States of America","admin1":"Virginia","population":912000},"geometry":{"type":"Point","coordinates":[-77.451932,37.551965]}},{"type":"Feature","properties":{"name":"Sacramento","tier":"province","country":"United States of America","admin1":"California","population":1604000},"geometry":{"type":"Point","coordinates":[-121.471984,38.576967]}},{"type":"Feature","properties":{"name":"Salem","tier":"province","country":"United States of America","admin1":"Oregon","population":229010},"geometry":{"type":"Point","coordinates":[-123.023897,44.92807]}},{"type":"Feature","properties":{"name":"Salt Lake City","tier":"province","country":"United States of America","admin1":"Utah","population":966000},"geometry":{"type":"Point","coordinates":[-111.931998,40.776962]}},{"type":"Feature","properties":{"name":"Saltillo","tier":"province","country":"Mexico","admin1":"Coahuila","population":754000},"geometry":{"type":"Point","coordinates":[-101.006928,25.421905]}},{"type":"Feature","properties":{"name":"San Luis Potos\u00ed","tier":"province","country":"Mexico","admin1":"San Luis Potos\u00ed","population":992000},"geometry":{"type":"Point","coordinates":[-101.001941,22.171922]}},{"type":"Feature","properties":{"name":"Santa Fe","tier":"province","country":"United States of America","admin1":"New Mexico","population":92681},"geometry":{"type":"Point","coordinates":[-105.937239,35.686929]}},{"type":"Feature","properties":{"name":"Springfield","tier":"province","country":"United States of America","admin1":"Illinois","population":134715},"geometry":{"type":"Point","coordinates":[-89.650017,39.82001]}},{"type":"Feature","properties":{"name":"St. John's","tier":"province","country":"Canada","admin1":"Newfoundland and Labrador","population":131469},"geometry":{"type":"Point","coordinates":[-52.681007,47.584988]}},{"type":"Feature","properties":{"name":"St. Paul","tier":"province","country":"United States of America","admin1":"Minnesota","population":734854},"geometry":{"type":"Point","coordinates":[-93.084975,44.943987]}},{"type":"Feature","properties":{"name":"Tallahassee","tier":"province","country":"United States of America","admin1":"Florida","population":221222},"geometry":{"type":"Point","coordinates":[-84.280034,30.449988]}},{"type":"Feature","properties":{"name":"Tepic","tier":"province","country":"Mexico","admin1":"Nayarit","population":318781},"geometry":{"type":"Point","coordinates":[-104.879991,21.505392]}},{"type":"Feature","properties":{"name":"Tlaxcala","tier":"province","country":"Mexico","admin1":"Tlaxcala","population":503878},"geometry":{"type":"Point","coordinates":[-98.23001,19.319995]}},{"type":"Feature","properties":{"name":"Toluca","tier":"province","country":"Mexico","admin1":"M\u00e9xico","population":1531000},"geometry":{"type":"Point","coordinates":[-99.671945,19.332328]}},{"type":"Feature","properties":{"name":"Topeka","tier":"province","country":"United States of America","admin1":"Kansas","population":132091},"geometry":{"type":"Point","coordinates":[-95.669985,39.050005]}},{"type":"Feature","properties":{"name":"Toronto","tier":"province","country":"Canada","admin1":"Ontario","population":5213000},"geometry":{"type":"Point","coordinates":[-79.421967,43.701926]}},{"type":"Feature","properties":{"name":"Trenton","tier":"province","country":"United States of America","admin1":"New Jersey","population":366513},"geometry":{"type":"Point","coordinates":[-74.743355,40.216963]}},{"type":"Feature","properties":{"name":"Tuxtla Guti\u00e9rrez","tier":"province","country":"Mexico","admin1":"Chiapas","population":481128},"geometry":{"type":"Point","coordinates":[-93.15001,16.749997]}},{"type":"Feature","properties":{"name":"Victoria","tier":"province","country":"Canada","admin1":"British Columbia","population":289625},"geometry":{"type":"Point","coordinates":[-123.350001,48.433283]}},{"type":"Feature","properties":{"name":"Villahermosa","tier":"province","country":"Mexico","admin1":"Tabasco","population":428564},"geometry":{"type":"Point","coordinates":[-92.899973,17.999972]}},{"type":"Feature","properties":{"name":"Whitehorse","tier":"province","country":"Canada","admin1":"Yukon","population":23276},"geometry":{"type":"Point","coordinates":[-135.049984,60.716719]}},{"type":"Feature","properties":{"name":"Winnipeg","tier":"province","country":"Canada","admin1":"Manitoba","population":632063},"geometry":{"type":"Point","coordinates":[-97.165992,49.882988]}},{"type":"Feature","properties":{"name":"Xalapa","tier":"province","country":"Mexico","admin1":"Veracruz","population":452186},"geometry":{"type":"Point","coordinates":[-96.919986,19.529982]}},{"type":"Feature","properties":{"name":"Yellowknife","tier":"province","country":"Canada","admin1":"Northwest Territories","population":19234},"geometry":{"type":"Point","coordinates":[-114.396981,62.442014]}},{"type":"Feature","properties":{"name":"Zacatecas","tier":"province","country":"Mexico","admin1":"Zacatecas","population":234481},"geometry":{"type":"Point","coordinates":[-102.580003,22.770431]}},{"type":"Feature","properties":{"name":"Acapulco","tier":"metro","country":"Mexico","admin1":"Guerrero","population":715584},"geometry":{"type":"Point","coordinates":[-99.915979,16.849991]}},{"type":"Feature","properties":{"name":"Akron","tier":"metro","country":"United States of America","admin1":"Ohio","population":703200},"geometry":{"type":"Point","coordinates":[-81.519996,41.070399]}},{"type":"Feature","properties":{"name":"Albuquerque","tier":"metro","country":"United States of America","admin1":"New Mexico","population":898642},"geometry":{"type":"Point","coordinates":[-106.641331,35.104975]}},{"type":"Feature","properties":{"name":"Arlington","tier":"metro","country":"United States of America","admin1":"Texas","population":724777},"geometry":{"type":"Point","coordinates":[-97.020239,32.684761]}},{"type":"Feature","properties":{"name":"Aurora","tier":"metro","country":"United States of America","admin1":"Colorado","population":587540},"geometry":{"type":"Point","coordinates":[-104.808497,39.695857]}},{"type":"Feature","properties":{"name":"Baltimore","tier":"metro","country":"United States of America","admin1":"Maryland","population":2255000},"geometry":{"type":"Point","coordinates":[-76.621931,39.301936]}},{"type":"Feature","properties":{"name":"Birmingham","tier":"metro","country":"United States of America","admin1":"Alabama","population":1128047},"geometry":{"type":"Point","coordinates":[-86.824995,33.530006]}},{"type":"Feature","properties":{"name":"Bridgeport","tier":"metro","country":"United States of America","admin1":"Connecticut","population":1018000},"geometry":{"type":"Point","coordinates":[-73.201907,41.181925]}},{"type":"Feature","properties":{"name":"Buffalo","tier":"metro","country":"United States of America","admin1":"New York","population":1016000},"geometry":{"type":"Point","coordinates":[-78.881948,42.881924]}},{"type":"Feature","properties":{"name":"Calgary","tier":"metro","country":"Canada","admin1":"Alberta","population":1110000},"geometry":{"type":"Point","coordinates":[-114.081944,51.084938]}},{"type":"Feature","properties":{"name":"Canc\u00fan","tier":"metro","country":"Mexico","admin1":"Quintana Roo","population":542043},"geometry":{"type":"Point","coordinates":[-86.830008,21.16996]}},{"type":"Feature","properties":{"name":"Charlotte","tier":"metro","country":"United States of America","admin1":"North Carolina","population":995000},"geometry":{"type":"Point","coordinates":[-80.831984,35.20694]}},{"type":"Feature","properties":{"name":"Chicago","tier":"metro","country":"United States of America","admin1":"Illinois","population":8990000},"geometry":{"type":"Point","coordinates":[-87.752001,41.831937]}},{"type":"Feature","properties":{"name":"Cincinnati","tier":"metro","country":"United States of America","admin1":"Ohio","population":1636000},"geometry":{"type":"Point","coordinates":[-84.458869,39.163831]}},{"type":"Feature","properties":{"name":"Ciudad Ju\u00e1rez","tier":"metro","country":"Mexico","admin1":"Chihuahua","population":1343000},"geometry":{"type":"Point","coordinates":[-106.491994,31.692323]}},{"type":"Feature","properties":{"name":"Cleveland","tier":"metro","country":"United States of America","admin1":"Ohio","population":1890000},"geometry":{"type":"Point","coordinates":[-81.696944,41.471933]}},{"type":"Feature","properties":{"name":"Covington","tier":"metro","country":"United States of America","admin1":"Kentucky","population":585489},"geometry":{"type":"Point","coordinates":[-84.508599,39.084008]}},{"type":"Feature","properties":{"name":"Dallas","tier":"metro","country":"United States of America","admin1":"Texas","population":4798000},"geometry":{"type":"Point","coordinates":[-96.841963,32.82197]}},{"type":"Feature","properties":{"name":"Dayton","tier":"metro","country":"United States of America","admin1":"Ohio","population":773000},"geometry":{"type":"Point","coordinates":[-84.201933,39.752322]}},{"type":"Feature","properties":{"name":"Detroit","tier":"metro","country":"United States of America","admin1":"Michigan","population":4101000},"geometry":{"type":"Point","coordinates":[-83.082002,42.331906]}},{"type":"Feature","properties":{"name":"El Paso","tier":"metro","country":"United States of America","admin1":"Texas","population":753000},"geometry":{"type":"Point","coordinates":[-106.511941,31.78193]}},{"type":"Feature","properties":{"name":"Fort Lauderdale","tier":"metro","country":"United States of America","admin1":"Florida","population":2042042},"geometry":{"type":"Point","coordinates":[-80.141786,26.136065]}},{"type":"Feature","properties":{"name":"Fresno","tier":"metro","country":"United States of America","admin1":"California","population":616353},"geometry":{"type":"Point","coordinates":[-119.772984,36.747717]}},{"type":"Feature","properties":{"name":"Ft. Worth","tier":"metro","country":"United States of America","admin1":"Texas","population":1440454},"geometry":{"type":"Point","coordinates":[-97.340038,32.739977]}},{"type":"Feature","properties":{"name":"Gary","tier":"metro","country":"United States of America","admin1":"Indiana","population":591180},"geometry":{"type":"Point","coordinates":[-87.330003,41.580394]}},{"type":"Feature","properties":{"name":"Glendale","tier":"metro","country":"United States of America","admin1":"Arizona","population":500000},"geometry":{"type":"Point","coordinates":[-112.195824,33.581941]}},{"type":"Feature","properties":{"name":"Grand Rapids","tier":"metro","country":"United States of America","admin1":"Michigan","population":535829},"geometry":{"type":"Point","coordinates":[-85.669949,42.96372]}},{"type":"Feature","properties":{"name":"Hamilton","tier":"metro","country":"Canada","admin1":"Ontario","population":721053},"geometry":{"type":"Point","coordinates":[-79.829996,43.249982]}},{"type":"Feature","properties":{"name":"Houston","tier":"metro","country":"United States of America","admin1":"Texas","population":4459000},"geometry":{"type":"Point","coordinates":[-95.341925,29.82192]}},{"type":"Feature","properties":{"name":"Irvine","tier":"metro","country":"United States of America","admin1":"California","population":3010232},"geometry":{"type":"Point","coordinates":[-117.82995,33.680411]}},{"type":"Feature","properties":{"name":"Jacksonville","tier":"metro","country":"United States of America","admin1":"Florida","population":988000},"geometry":{"type":"Point","coordinates":[-81.671933,30.331967]}},{"type":"Feature","properties":{"name":"Joliet","tier":"metro","country":"United States of America","admin1":"Illinois","population":578460},"geometry":{"type":"Point","coordinates":[-88.106674,41.529983]}},{"type":"Feature","properties":{"name":"Kansas City","tier":"metro","country":"United States of America","admin1":"Kansas","population":501577},"geometry":{"type":"Point","coordinates":[-94.630146,39.113581]}},{"type":"Feature","properties":{"name":"Kansas City","tier":"metro","country":"United States of America","admin1":"Missouri","population":1469000},"geometry":{"type":"Point","coordinates":[-94.60604,39.109034]}},{"type":"Feature","properties":{"name":"Knoxville","tier":"metro","country":"United States of America","admin1":"Tennessee","population":655400},"geometry":{"type":"Point","coordinates":[-83.92003,35.970012]}},{"type":"Feature","properties":{"name":"Las Vegas","tier":"metro","country":"United States of America","admin1":"Nevada","population":1823000},"geometry":{"type":"Point","coordinates":[-115.221952,36.211944]}},{"type":"Feature","properties":{"name":"Le\u00f3n","tier":"metro","country":"Mexico","admin1":"Guanajuato","population":1488000},"geometry":{"type":"Point","coordinates":[-101.701976,21.151933]}},{"type":"Feature","properties":{"name":"Long Beach","tier":"metro","country":"United States of America","admin1":"California","population":2036134},"geometry":{"type":"Point","coordinates":[-118.158044,33.786967]}},{"type":"Feature","properties":{"name":"Los Angeles","tier":"metro","country":"United States of America","admin1":"California","population":12500000},"geometry":{"type":"Point","coordinates":[-118.181926,33.991924]}},{"type":"Feature","properties":{"name":"Louisville","tier":"metro","country":"United States of America","admin1":"Kentucky","population":948000},"geometry":{"type":"Point","coordinates":[-85.75065,38.226963]}},{"type":"Feature","properties":{"name":"Lowell","tier":"metro","country":"United States of America","admin1":"Massachusetts","population":723629},"geometry":{"type":"Point","coordinates":[-71.316691,42.633688]}},{"type":"Feature","properties":{"name":"Matamoros","tier":"metro","country":"Mexico","admin1":"Tamaulipas","population":538785},"geometry":{"type":"Point","coordinates":[-97.500003,25.879982]}},{"type":"Feature","properties":{"name":"Mazatl\u00e1n","tier":"metro","country":"Mexico","admin1":"Sonora","population":500000},"geometry":{"type":"Point","coordinates":[-110.13334,29.017104]}},{"type":"Feature","properties":{"name":"Memphis","tier":"metro","country":"United States of America","admin1":"Tennessee","population":1081000},"geometry":{"type":"Point","coordinates":[-90.001941,35.121933]}},{"type":"Feature","properties":{"name":"Mesa","tier":"metro","country":"United States of America","admin1":"Arizona","population":1085394},"geometry":{"type":"Point","coordinates":[-111.736084,33.423915]}},{"type":"Feature","properties":{"name":"Miami","tier":"metro","country":"United States of America","admin1":"Florida","population":5585000},"geometry":{"type":"Point","coordinates":[-80.226052,25.789557]}},{"type":"Feature","properties":{"name":"Milwaukee","tier":"metro","country":"United States of America","admin1":"Wisconsin","population":1388000},"geometry":{"type":"Point","coordinates":[-87.921913,43.054601]}},{"type":"Feature","properties":{"name":"Minneapolis","tier":"metro","country":"United States of America","admin1":"Minnesota","population":2616000},"geometry":{"type":"Point","coordinates":[-93.253732,44.981925]}},{"type":"Feature","properties":{"name":"Montr\u00e9al","tier":"metro","country":"Canada","admin1":"Qu\u00e9bec","population":3678000},"geometry":{"type":"Point","coordinates":[-73.585243,45.501945]}},{"type":"Feature","properties":{"name":"New Haven","tier":"metro","country":"United States of America","admin1":"Connecticut","population":846766},"geometry":{"type":"Point","coordinates":[-72.900005,41.330383]}},{"type":"Feature","properties":{"name":"New Orleans","tier":"metro","country":"United States of America","admin1":"Louisiana","population":785000},"geometry":{"type":"Point","coordinates":[-90.041913,29.996948]}},{"type":"Feature","properties":{"name":"New York","tier":"metro","country":"United States of America","admin1":"New York","population":19040000},"geometry":{"type":"Point","coordinates":[-73.981963,40.751925]}},{"type":"Feature","properties":{"name":"Nezahualcoyotl","tier":"metro","country":"Mexico","admin1":"M\u00e9xico","population":1109363},"geometry":{"type":"Point","coordinates":[-99.029987,19.410016]}},{"type":"Feature","properties":{"name":"Norfolk","tier":"metro","country":"United States of America","admin1":"Virginia","population":1047869},"geometry":{"type":"Point","coordinates":[-76.280006,36.849959]}},{"type":"Feature","properties":{"name":"Oakland","tier":"metro","country":"United States of America","admin1":"California","population":1510271},"geometry":{"type":"Point","coordinates":[-122.221103,37.768921]}},{"type":"Feature","properties":{"name":"Oceanside","tier":"metro","country":"United States of America","admin1":"California","population":609854},"geometry":{"type":"Point","coordinates":[-117.334968,33.220465]}},{"type":"Feature","properties":{"name":"Omaha","tier":"metro","country":"United States of America","admin1":"Nebraska","population":877110},"geometry":{"type":"Point","coordinates":[-96.00999,41.240001]}},{"type":"Feature","properties":{"name":"Orlando","tier":"metro","country":"United States of America","admin1":"Florida","population":1350000},"geometry":{"type":"Point","coordinates":[-81.381976,28.511923]}},{"type":"Feature","properties":{"name":"Pasadena","tier":"metro","country":"United States of America","admin1":"Texas","population":628492},"geometry":{"type":"Point","coordinates":[-95.147743,29.660863]}},{"type":"Feature","properties":{"name":"Philadelphia","tier":"metro","country":"United States of America","admin1":"Pennsylvania","population":5492000},"geometry":{"type":"Point","coordinates":[-75.171942,40.001919]}},{"type":"Feature","properties":{"name":"Pittsburgh","tier":"metro","country":"United States of America","admin1":"Pennsylvania","population":1838000},"geometry":{"type":"Point","coordinates":[-80.001931,40.431945]}},{"type":"Feature","properties":{"name":"Portland","tier":"metro","country":"United States of America","admin1":"Oregon","population":1875000},"geometry":{"type":"Point","coordinates":[-122.681936,45.52197]}},{"type":"Feature","properties":{"name":"Rochester","tier":"metro","country":"United States of America","admin1":"New York","population":755000},"geometry":{"type":"Point","coordinates":[-77.621896,43.172372]}},{"type":"Feature","properties":{"name":"San Antonio","tier":"metro","country":"United States of America","admin1":"Texas","population":1473000},"geometry":{"type":"Point","coordinates":[-98.509251,29.489279]}},{"type":"Feature","properties":{"name":"San Bernardino","tier":"metro","country":"United States of America","admin1":"California","population":1745000},"geometry":{"type":"Point","coordinates":[-117.30198,34.12233]}},{"type":"Feature","properties":{"name":"San Diego","tier":"metro","country":"United States of America","admin1":"California","population":2916000},"geometry":{"type":"Point","coordinates":[-117.181936,32.82197]}},{"type":"Feature","properties":{"name":"San Francisco","tier":"metro","country":"United States of America","admin1":"California","population":3450000},"geometry":{"type":"Point","coordinates":[-122.417169,37.769196]}},{"type":"Feature","properties":{"name":"San Jose","tier":"metro","country":"United States of America","admin1":"California","population":1668000},"geometry":{"type":"Point","coordinates":[-121.851935,37.301929]}},{"type":"Feature","properties":{"name":"San Mateo","tier":"metro","country":"United States of America","admin1":"California","population":626406},"geometry":{"type":"Point","coordinates":[-122.313062,37.556918]}},{"type":"Feature","properties":{"name":"Sarasota","tier":"metro","country":"United States of America","admin1":"Florida","population":589959},"geometry":{"type":"Point","coordinates":[-82.530787,27.336121]}},{"type":"Feature","properties":{"name":"Seattle","tier":"metro","country":"United States of America","admin1":"Washington","population":3074000},"geometry":{"type":"Point","coordinates":[-122.341931,47.571948]}},{"type":"Feature","properties":{"name":"St. Louis","tier":"metro","country":"United States of America","admin1":"Missouri","population":2199000},"geometry":{"type":"Point","coordinates":[-90.241926,38.636964]}},{"type":"Feature","properties":{"name":"St. Petersburg","tier":"metro","country":"United States of America","admin1":"Florida","population":800313},"geometry":{"type":"Point","coordinates":[-82.679383,27.770539]}},{"type":"Feature","properties":{"name":"Stamford","tier":"metro","country":"United States of America","admin1":"Connecticut","population":746920},"geometry":{"type":"Point","coordinates":[-73.539191,41.053346]}},{"type":"Feature","properties":{"name":"Stockton","tier":"metro","country":"United States of America","admin1":"California","population":685306},"geometry":{"type":"Point","coordinates":[-121.289739,37.958134]}},{"type":"Feature","properties":{"name":"Syracuse","tier":"metro","country":"United States of America","admin1":"New York","population":662577},"geometry":{"type":"Point","coordinates":[-76.150014,43.049994]}},{"type":"Feature","properties":{"name":"Tacoma","tier":"metro","country":"United States of America","admin1":"Washington","population":719868},"geometry":{"type":"Point","coordinates":[-122.515013,47.211316]}},{"type":"Feature","properties":{"name":"Tampa","tier":"metro","country":"United States of America","admin1":"Florida","population":2314000},"geometry":{"type":"Point","coordinates":[-82.460567,27.948934]}},{"type":"Feature","properties":{"name":"Tampico","tier":"metro","country":"Mexico","admin1":"Tamaulipas","population":859419},"geometry":{"type":"Point","coordinates":[-97.870006,22.30002]}},{"type":"Feature","properties":{"name":"Tijuana","tier":"metro","country":"Mexico","admin1":"Baja California","population":1553000},"geometry":{"type":"Point","coordinates":[-117.081942,32.501963]}},{"type":"Feature","properties":{"name":"Torre\u00f3n","tier":"metro","country":"Mexico","admin1":"Coahuila","population":1144000},"geometry":{"type":"Point","coordinates":[-103.421949,25.571999]}},{"type":"Feature","properties":{"name":"Tucson","tier":"metro","country":"United States of America","admin1":"Arizona","population":823000},"geometry":{"type":"Point","coordinates":[-110.891932,32.206943]}},{"type":"Feature","properties":{"name":"Tulsa","tier":"metro","country":"United States of America","admin1":"Oklahoma","population":946962},"geometry":{"type":"Point","coordinates":[-95.930021,36.120003]}},{"type":"Feature","properties":{"name":"Vancouver","tier":"metro","country":"United States of America","admin1":"Washington","population":525802},"geometry":{"type":"Point","coordinates":[-122.639993,45.630301]}},{"type":"Feature","properties":{"name":"Vancouver","tier":"metro","country":"Canada","admin1":"British Columbia","population":2313328},"geometry":{"type":"Point","coordinates":[-123.12359,49.275362]}},{"type":"Feature","properties":{"name":"Veracruz","tier":"metro","country":"Mexico","admin1":"Veracruz","population":578963},"geometry":{"type":"Point","coordinates":[-96.159981,19.177342]}},{"type":"Feature","properties":{"name":"Virginia Beach","tier":"metro","country":"United States of America","admin1":"Virginia","population":1491000},"geometry":{"type":"Point","coordinates":[-75.980265,36.85516]}},{"type":"Feature","properties":{"name":"West Palm Beach","tier":"metro","country":"United States of America","admin1":"Florida","population":1250000},"geometry":{"type":"Point","coordinates":[-80.123621,26.74502]}},{"type":"Feature","properties":{"name":"Abbotsford","tier":"city","country":"Canada","admin1":"British Columbia","population":151683},"geometry":{"type":"Point","coordinates":[-122.299987,49.050377]}},{"type":"Feature","properties":{"name":"Allentown","tier":"city","country":"United States of America","admin1":"Pennsylvania","population":496442},"geometry":{"type":"Point","coordinates":[-75.500028,40.599988]}},{"type":"Feature","properties":{"name":"Amarillo","tier":"city","country":"United States of America","admin1":"Texas","population":181766},"geometry":{"type":"Point","coordinates":[-101.829997,35.22998]}},{"type":"Feature","properties":{"name":"Anchorage","tier":"city","country":"United States of America","admin1":"Alaska","population":260283},"geometry":{"type":"Point","coordinates":[-149.900215,61.21997]}},{"type":"Feature","properties":{"name":"Ann Arbor","tier":"city","country":"United States of America","admin1":"Michigan","population":265976},"geometry":{"type":"Point","coordinates":[-83.719991,42.300375]}},{"type":"Feature","properties":{"name":"Appleton","tier":"city","country":"United States of America","admin1":"Wisconsin","population":203665},"geometry":{"type":"Point","coordinates":[-88.400506,44.268679]}},{"type":"Feature","properties":{"name":"Augusta","tier":"city","country":"United States of America","admin1":"Georgia","population":262332},"geometry":{"type":"Point","coordinates":[-81.984981,33.460812]}},{"type":"Feature","properties":{"name":"Aurora","tier":"city","country":"United States of America","admin1":"Illinois","population":350000},"geometry":{"type":"Point","coordinates":[-88.299996,41.765395]}},{"type":"Feature","properties":{"name":"Bakersfield","tier":"city","country":"United States of America","admin1":"California","population":443129},"geometry":{"type":"Point","coordinates":[-119.019981,35.369972]}},{"type":"Feature","properties":{"name":"Barlett","tier":"city","country":"United States of America","admin1":"Tennessee","population":286423},"geometry":{"type":"Point","coordinates":[-89.84109,35.2229]}},{"type":"Feature","properties":{"name":"Barrie","tier":"city","country":"Canada","admin1":"Ontario","population":182041},"geometry":{"type":"Point","coordinates":[-79.700004,44.383762]}},{"type":"Feature","properties":{"name":"Berkeley","tier":"city","country":"United States of America","admin1":"California","population":496356},"geometry":{"type":"Point","coordinates":[-122.271152,37.873901]}},{"type":"Feature","properties":{"name":"Brownsville","tier":"city","country":"United States of America","admin1":"Texas","population":181399},"geometry":{"type":"Point","coordinates":[-97.500003,25.91998]}},{"type":"Feature","properties":{"name":"Canton","tier":"city","country":"United States of America","admin1":"Ohio","population":258660},"geometry":{"type":"Point","coordinates":[-81.378635,40.798865]}},{"type":"Feature","properties":{"name":"Cedar Rapids","tier":"city","country":"United States of America","admin1":"Iowa","population":170621},"geometry":{"type":"Point","coordinates":[-91.660023,41.969982]}},{"type":"Feature","properties":{"name":"Celaya","tier":"city","country":"Mexico","admin1":"Guanajuato","population":383697},"geometry":{"type":"Point","coordinates":[-100.800008,20.530025]}},{"type":"Feature","properties":{"name":"Charleston","tier":"city","country":"United States of America","admin1":"South Carolina","population":411940},"geometry":{"type":"Point","coordinates":[-79.992105,32.792377]}},{"type":"Feature","properties":{"name":"Chattanooga","tier":"city","country":"United States of America","admin1":"Tennessee","population":257589},"geometry":{"type":"Point","coordinates":[-85.250001,35.06999]}},{"type":"Feature","properties":{"name":"Ciudad Madero","tier":"city","country":"Mexico","admin1":"Tamaulipas","population":192736},"geometry":{"type":"Point","coordinates":[-97.836106,22.318908]}},{"type":"Feature","properties":{"name":"Ciudad Obregon","tier":"city","country":"Mexico","admin1":"Sonora","population":288002},"geometry":{"type":"Point","coordinates":[-109.924981,27.466604]}},{"type":"Feature","properties":{"name":"Ciudad del Carmen","tier":"city","country":"Mexico","admin1":"Campeche","population":156195},"geometry":{"type":"Point","coordinates":[-91.82448,18.653659]}},{"type":"Feature","properties":{"name":"Coatzacoalcos","tier":"city","country":"Mexico","admin1":"Veracruz","population":287285},"geometry":{"type":"Point","coordinates":[-94.42001,18.120404]}},{"type":"Feature","properties":{"name":"Colorado Springs","tier":"city","country":"United States of America","admin1":"Colorado","population":493654},"geometry":{"type":"Point","coordinates":[-104.791986,38.862963]}},{"type":"Feature","properties":{"name":"Columbia","tier":"city","country":"United States of America","admin1":"Missouri","population":398093},"geometry":{"type":"Point","coordinates":[-92.33391,38.952079]}},{"type":"Feature","properties":{"name":"Columbus","tier":"city","country":"United States of America","admin1":"Georgia","population":217980},"geometry":{"type":"Point","coordinates":[-84.980017,32.470433]}},{"type":"Feature","properties":{"name":"Coral Gables","tier":"city","country":"United States of America","admin1":"Florida","population":150000},"geometry":{"type":"Point","coordinates":[-80.291079,25.715419]}},{"type":"Feature","properties":{"name":"Coral Springs","tier":"city","country":"United States of America","admin1":"Florida","population":250000},"geometry":{"type":"Point","coordinates":[-80.270822,26.270837]}},{"type":"Feature","properties":{"name":"Corpus Christi","tier":"city","country":"United States of America","admin1":"Texas","population":277454},"geometry":{"type":"Point","coordinates":[-97.401895,27.742814]}},{"type":"Feature","properties":{"name":"C\u00f3rdoba","tier":"city","country":"Mexico","admin1":"Veracruz","population":220563},"geometry":{"type":"Point","coordinates":[-96.919986,18.920381]}},{"type":"Feature","properties":{"name":"Davenport","tier":"city","country":"United States of America","admin1":"Iowa","population":255738},"geometry":{"type":"Point","coordinates":[-90.58753,41.553987]}},{"type":"Feature","properties":{"name":"Daytona Beach","tier":"city","country":"United States of America","admin1":"Florida","population":216890},"geometry":{"type":"Point","coordinates":[-81.023075,29.210554]}},{"type":"Feature","properties":{"name":"Denton","tier":"city","country":"United States of America","admin1":"Texas","population":176930},"geometry":{"type":"Point","coordinates":[-97.128837,33.215762]}},{"type":"Feature","properties":{"name":"Durham","tier":"city","country":"United States of America","admin1":"North Carolina","population":309495},"geometry":{"type":"Point","coordinates":[-78.92,35.999959]}},{"type":"Feature","properties":{"name":"Edinburg","tier":"city","country":"United States of America","admin1":"Texas","population":150000},"geometry":{"type":"Point","coordinates":[-98.159962,26.303187]}},{"type":"Feature","properties":{"name":"Elgin","tier":"city","country":"United States of America","admin1":"Illinois","population":389514},"geometry":{"type":"Point","coordinates":[-88.289919,42.039461]}},{"type":"Feature","properties":{"name":"Ensenada","tier":"city","country":"Mexico","admin1":"Baja California","population":256565},"geometry":{"type":"Point","coordinates":[-116.619998,31.869979]}},{"type":"Feature","properties":{"name":"Erie","tier":"city","country":"United States of America","admin1":"Pennsylvania","population":178182},"geometry":{"type":"Point","coordinates":[-80.084993,42.129921]}},{"type":"Feature","properties":{"name":"Eugene","tier":"city","country":"United States of America","admin1":"Oregon","population":245158},"geometry":{"type":"Point","coordinates":[-123.100016,44.05001]}},{"type":"Feature","properties":{"name":"Evanston","tier":"city","country":"United States of America","admin1":"Illinois","population":350000},"geometry":{"type":"Point","coordinates":[-87.699955,42.048349]}},{"type":"Feature","properties":{"name":"Evansville","tier":"city","country":"United States of America","admin1":"Indiana","population":174102},"geometry":{"type":"Point","coordinates":[-87.555829,37.974696]}},{"type":"Feature","properties":{"name":"Everett","tier":"city","country":"United States of America","admin1":"Washington","population":486903},"geometry":{"type":"Point","coordinates":[-122.199968,47.960418]}},{"type":"Feature","properties":{"name":"Fargo","tier":"city","country":"United States of America","admin1":"North Dakota","population":162842},"geometry":{"type":"Point","coordinates":[-96.789426,46.877228]}},{"type":"Feature","properties":{"name":"Fayetteville","tier":"city","country":"United States of America","admin1":"Arkansas","population":151671},"geometry":{"type":"Point","coordinates":[-94.157209,36.062978]}},{"type":"Feature","properties":{"name":"Fayetteville","tier":"city","country":"United States of America","admin1":"North Carolina","population":243306},"geometry":{"type":"Point","coordinates":[-78.883594,35.062936]}},{"type":"Feature","properties":{"name":"Flint","tier":"city","country":"United States of America","admin1":"Michigan","population":295212},"geometry":{"type":"Point","coordinates":[-83.687538,43.012864]}},{"type":"Feature","properties":{"name":"Fort Collins","tier":"city","country":"United States of America","admin1":"Colorado","population":228385},"geometry":{"type":"Point","coordinates":[-105.058869,40.560688]}},{"type":"Feature","properties":{"name":"Fort Pierce","tier":"city","country":"United States of America","admin1":"Florida","population":228245},"geometry":{"type":"Point","coordinates":[-80.325805,27.446786]}},{"type":"Feature","properties":{"name":"Fort Wayne","tier":"city","country":"United States of America","admin1":"Indiana","population":299871},"geometry":{"type":"Point","coordinates":[-85.129982,41.080398]}},{"type":"Feature","properties":{"name":"Ft. Myers","tier":"city","country":"United States of America","admin1":"Florida","population":188606},"geometry":{"type":"Point","coordinates":[-81.860492,26.640298]}},{"type":"Feature","properties":{"name":"Gainesville","tier":"city","country":"United States of America","admin1":"Florida","population":191097},"geometry":{"type":"Point","coordinates":[-82.325037,29.65138]}},{"type":"Feature","properties":{"name":"Green Bay","tier":"city","country":"United States of America","admin1":"Wisconsin","population":198611},"geometry":{"type":"Point","coordinates":[-88.000014,44.529981]}},{"type":"Feature","properties":{"name":"Greensboro","tier":"city","country":"United States of America","admin1":"North Carolina","population":388887},"geometry":{"type":"Point","coordinates":[-79.800023,36.070006]}},{"type":"Feature","properties":{"name":"Greenville","tier":"city","country":"United States of America","admin1":"South Carolina","population":350954},"geometry":{"type":"Point","coordinates":[-82.394155,34.852923]}},{"type":"Feature","properties":{"name":"G\u00f3mez Palacio","tier":"city","country":"Mexico","admin1":"Durango","population":399328},"geometry":{"type":"Point","coordinates":[-103.500024,25.570053]}},{"type":"Feature","properties":{"name":"Hampton","tier":"city","country":"United States of America","admin1":"Virginia","population":366766},"geometry":{"type":"Point","coordinates":[-76.34995,37.030025]}},{"type":"Feature","properties":{"name":"Huntsville","tier":"city","country":"United States of America","admin1":"Alabama","population":212733},"geometry":{"type":"Point","coordinates":[-86.609995,34.71996]}},{"type":"Feature","properties":{"name":"Irapuato","tier":"city","country":"Mexico","admin1":"Guanajuato","population":339554},"geometry":{"type":"Point","coordinates":[-101.499991,20.670016]}},{"type":"Feature","properties":{"name":"Kalamazoo","tier":"city","country":"United States of America","admin1":"Michigan","population":183381},"geometry":{"type":"Point","coordinates":[-85.58719,42.292159]}},{"type":"Feature","properties":{"name":"Kissimmee","tier":"city","country":"United States of America","admin1":"Florida","population":225494},"geometry":{"type":"Point","coordinates":[-81.407781,28.292057]}},{"type":"Feature","properties":{"name":"Kitchener","tier":"city","country":"Canada","admin1":"Ontario","population":417001},"geometry":{"type":"Point","coordinates":[-80.500007,43.449995]}},{"type":"Feature","properties":{"name":"Lafayette","tier":"city","country":"United States of America","admin1":"Louisiana","population":158214},"geometry":{"type":"Point","coordinates":[-92.019949,30.199977]}},{"type":"Feature","properties":{"name":"Lakeville","tier":"city","country":"United States of America","admin1":"Minnesota","population":261308},"geometry":{"type":"Point","coordinates":[-93.24251,44.650103]}},{"type":"Feature","properties":{"name":"Lancaster","tier":"city","country":"United States of America","admin1":"Pennsylvania","population":209489},"geometry":{"type":"Point","coordinates":[-76.305766,40.037775]}},{"type":"Feature","properties":{"name":"Lancaster","tier":"city","country":"United States of America","admin1":"California","population":225799},"geometry":{"type":"Point","coordinates":[-118.135823,34.698049]}},{"type":"Feature","properties":{"name":"Laredo","tier":"city","country":"United States of America","admin1":"Texas","population":434768},"geometry":{"type":"Point","coordinates":[-99.507219,27.506136]}},{"type":"Feature","properties":{"name":"Lexington","tier":"city","country":"United States of America","admin1":"Kentucky","population":264578},"geometry":{"type":"Point","coordinates":[-84.500021,38.050015]}},{"type":"Feature","properties":{"name":"London","tier":"city","country":"Canada","admin1":"Ontario","population":346765},"geometry":{"type":"Point","coordinates":[-81.249987,42.969999]}},{"type":"Feature","properties":{"name":"Los Mochis","tier":"city","country":"Mexico","admin1":"Sinaloa","population":249047},"geometry":{"type":"Point","coordinates":[-108.999998,25.789988]}},{"type":"Feature","properties":{"name":"Lubbock","tier":"city","country":"United States of America","admin1":"Texas","population":213300},"geometry":{"type":"Point","coordinates":[-101.879968,33.580003]}},{"type":"Feature","properties":{"name":"L\u00e1zaro C\u00e1rdenas","tier":"city","country":"Mexico","admin1":"Michoac\u00e1n","population":160087},"geometry":{"type":"Point","coordinates":[-102.199974,17.958709]}},{"type":"Feature","properties":{"name":"Manchester","tier":"city","country":"United States of America","admin1":"New Hampshire","population":196566},"geometry":{"type":"Point","coordinates":[-71.455287,42.995992]}},{"type":"Feature","properties":{"name":"Mazatl\u00e1n","tier":"city","country":"Mexico","admin1":"Sinaloa","population":368204},"geometry":{"type":"Point","coordinates":[-106.420001,23.221101]}},{"type":"Feature","properties":{"name":"McAllen","tier":"city","country":"United States of America","admin1":"Texas","population":364004},"geometry":{"type":"Point","coordinates":[-98.229725,26.203038]}},{"type":"Feature","properties":{"name":"Melbourne","tier":"city","country":"United States of America","admin1":"Florida","population":265414},"geometry":{"type":"Point","coordinates":[-80.60832,28.08331]}},{"type":"Feature","properties":{"name":"Metairie","tier":"city","country":"United States of America","admin1":"Louisiana","population":394206},"geometry":{"type":"Point","coordinates":[-90.152777,29.983866]}},{"type":"Feature","properties":{"name":"Miami Beach","tier":"city","country":"United States of America","admin1":"Florida","population":407750},"geometry":{"type":"Point","coordinates":[-80.131781,25.80992]}},{"type":"Feature","properties":{"name":"Minatitl\u00e1n","tier":"city","country":"Mexico","admin1":"Veracruz","population":201902},"geometry":{"type":"Point","coordinates":[-94.530003,17.980465]}},{"type":"Feature","properties":{"name":"Mobile","tier":"city","country":"United States of America","admin1":"Alabama","population":253466},"geometry":{"type":"Point","coordinates":[-88.049985,30.680025]}},{"type":"Feature","properties":{"name":"Modesto","tier":"city","country":"United States of America","admin1":"California","population":323386},"geometry":{"type":"Point","coordinates":[-120.98999,37.655413]}},{"type":"Feature","properties":{"name":"Monclova","tier":"city","country":"Mexico","admin1":"Coahuila","population":236244},"geometry":{"type":"Point","coordinates":[-101.419996,26.899998]}},{"type":"Feature","properties":{"name":"Naples","tier":"city","country":"United States of America","admin1":"Florida","population":262306},"geometry":{"type":"Point","coordinates":[-81.794992,26.142059]}},{"type":"Feature","properties":{"name":"National City","tier":"city","country":"United States of America","admin1":"California","population":150000},"geometry":{"type":"Point","coordinates":[-117.098005,32.671945]}},{"type":"Feature","properties":{"name":"Newark","tier":"city","country":"United States of America","admin1":"New Jersey","population":280123},"geometry":{"type":"Point","coordinates":[-74.170005,40.700421]}},{"type":"Feature","properties":{"name":"Niagara Falls","tier":"city","country":"United States of America","admin1":"New York","population":153134},"geometry":{"type":"Point","coordinates":[-79.036943,43.094823]}},{"type":"Feature","properties":{"name":"Nogales","tier":"city","country":"Mexico","admin1":"Sonora","population":178097},"geometry":{"type":"Point","coordinates":[-110.944996,31.305]}},{"type":"Feature","properties":{"name":"Nuevo Laredo","tier":"city","country":"Mexico","admin1":"Tamaulipas","population":349550},"geometry":{"type":"Point","coordinates":[-99.550007,27.499987]}},{"type":"Feature","properties":{"name":"Ogden","tier":"city","country":"United States of America","admin1":"Utah","population":377224},"geometry":{"type":"Point","coordinates":[-111.968034,41.232379]}},{"type":"Feature","properties":{"name":"Orizaba","tier":"city","country":"Mexico","admin1":"Veracruz","population":355333},"geometry":{"type":"Point","coordinates":[-97.129999,18.850024]}},{"type":"Feature","properties":{"name":"Oshawa","tier":"city","country":"Canada","admin1":"Ontario","population":450963},"geometry":{"type":"Point","coordinates":[-78.849978,43.879995]}},{"type":"Feature","properties":{"name":"Palm Springs","tier":"city","country":"United States of America","admin1":"California","population":390115},"geometry":{"type":"Point","coordinates":[-116.533053,33.777356]}},{"type":"Feature","properties":{"name":"Paterson","tier":"city","country":"United States of America","admin1":"New Jersey","population":151205},"geometry":{"type":"Point","coordinates":[-74.170005,40.919995]}},{"type":"Feature","properties":{"name":"Pensacola","tier":"city","country":"United States of America","admin1":"Florida","population":234384},"geometry":{"type":"Point","coordinates":[-87.216935,30.421126]}},{"type":"Feature","properties":{"name":"Peoria","tier":"city","country":"United States of America","admin1":"Illinois","population":172308},"geometry":{"type":"Point","coordinates":[-89.670041,40.699982]}},{"type":"Feature","properties":{"name":"Poughkeepsie","tier":"city","country":"United States of America","admin1":"New York","population":170996},"geometry":{"type":"Point","coordinates":[-73.921416,41.700231]}},{"type":"Feature","properties":{"name":"Poza Rica de Hidalgo","tier":"city","country":"Mexico","admin1":"Veracruz","population":254481},"geometry":{"type":"Point","coordinates":[-97.469979,20.550437]}},{"type":"Feature","properties":{"name":"Provo","tier":"city","country":"United States of America","admin1":"Utah","population":356712},"geometry":{"type":"Point","coordinates":[-111.63777,40.248899]}},{"type":"Feature","properties":{"name":"Puerto Vallarta","tier":"city","country":"Mexico","admin1":"Jalisco","population":187134},"geometry":{"type":"Point","coordinates":[-105.244982,20.677096]}},{"type":"Feature","properties":{"name":"Reno","tier":"city","country":"United States of America","admin1":"Nevada","population":328585},"geometry":{"type":"Point","coordinates":[-119.82001,39.529976]}},{"type":"Feature","properties":{"name":"Reynosa","tier":"city","country":"Mexico","admin1":"Tamaulipas","population":498654},"geometry":{"type":"Point","coordinates":[-98.300031,26.079996]}},{"type":"Feature","properties":{"name":"Riverside","tier":"city","country":"United States of America","admin1":"California","population":297554},"geometry":{"type":"Point","coordinates":[-117.398039,33.941945]}},{"type":"Feature","properties":{"name":"Roanoke","tier":"city","country":"United States of America","admin1":"Virginia","population":198171},"geometry":{"type":"Point","coordinates":[-79.941617,37.271199]}},{"type":"Feature","properties":{"name":"Rock Island","tier":"city","country":"United States of America","admin1":"Illinois","population":165728},"geometry":{"type":"Point","coordinates":[-90.534614,41.493396]}},{"type":"Feature","properties":{"name":"Rockford","tier":"city","country":"United States of America","admin1":"Illinois","population":255978},"geometry":{"type":"Point","coordinates":[-89.06969,42.269705]}},{"type":"Feature","properties":{"name":"Salamanca","tier":"city","country":"Mexico","admin1":"Guanajuato","population":197524},"geometry":{"type":"Point","coordinates":[-101.200009,20.57041]}},{"type":"Feature","properties":{"name":"Salem","tier":"city","country":"United States of America","admin1":"Massachusetts","population":335509},"geometry":{"type":"Point","coordinates":[-70.883092,42.522499]}},{"type":"Feature","properties":{"name":"Salinas","tier":"city","country":"United States of America","admin1":"California","population":156784},"geometry":{"type":"Point","coordinates":[-121.641656,36.682217]}},{"type":"Feature","properties":{"name":"San Cristobal de Las Casas","tier":"city","country":"Mexico","admin1":"Chiapas","population":186661},"geometry":{"type":"Point","coordinates":[-92.633375,16.749997]}},{"type":"Feature","properties":{"name":"Sanford","tier":"city","country":"United States of America","admin1":"Florida","population":333460},"geometry":{"type":"Point","coordinates":[-81.279985,28.78996]}},{"type":"Feature","properties":{"name":"Santa Barbara","tier":"city","country":"United States of America","admin1":"California","population":181632},"geometry":{"type":"Point","coordinates":[-119.71999,34.43499]}},{"type":"Feature","properties":{"name":"Santa Rosa","tier":"city","country":"United States of America","admin1":"California","population":231792},"geometry":{"type":"Point","coordinates":[-122.699989,38.450404]}},{"type":"Feature","properties":{"name":"Saskatoon","tier":"city","country":"Canada","admin1":"Saskatchewan","population":198958},"geometry":{"type":"Point","coordinates":[-106.669985,52.170031]}},{"type":"Feature","properties":{"name":"Savannah","tier":"city","country":"United States of America","admin1":"Georgia","population":180187},"geometry":{"type":"Point","coordinates":[-81.109995,32.021106]}},{"type":"Feature","properties":{"name":"Scranton","tier":"city","country":"United States of America","admin1":"Pennsylvania","population":156196},"geometry":{"type":"Point","coordinates":[-75.662679,41.409293]}},{"type":"Feature","properties":{"name":"Shreveport","tier":"city","country":"United States of America","admin1":"Louisiana","population":248053},"geometry":{"type":"Point","coordinates":[-93.770023,32.500018]}},{"type":"Feature","properties":{"name":"Sioux Falls","tier":"city","country":"United States of America","admin1":"South Dakota","population":155724},"geometry":{"type":"Point","coordinates":[-96.729998,43.549989]}},{"type":"Feature","properties":{"name":"South Bend","tier":"city","country":"United States of America","admin1":"Indiana","population":239822},"geometry":{"type":"Point","coordinates":[-86.250017,41.683307]}},{"type":"Feature","properties":{"name":"Spokane","tier":"city","country":"United States of America","admin1":"Washington","population":347705},"geometry":{"type":"Point","coordinates":[-117.419949,47.669996]}},{"type":"Feature","properties":{"name":"Springfield","tier":"city","country":"United States of America","admin1":"Massachusetts","population":421780},"geometry":{"type":"Point","coordinates":[-72.579999,42.120025]}},{"type":"Feature","properties":{"name":"Springfield","tier":"city","country":"United States of America","admin1":"Missouri","population":210939},"geometry":{"type":"Point","coordinates":[-93.319999,37.180016]}},{"type":"Feature","properties":{"name":"St. Charles","tier":"city","country":"United States of America","admin1":"Missouri","population":360485},"geometry":{"type":"Point","coordinates":[-90.506166,38.784285]}},{"type":"Feature","properties":{"name":"Sudbury","tier":"city","country":"Canada","admin1":"Ontario","population":157857},"geometry":{"type":"Point","coordinates":[-80.966645,46.49999]}},{"type":"Feature","properties":{"name":"Tapachula","tier":"city","country":"Mexico","admin1":"Chiapas","population":221521},"geometry":{"type":"Point","coordinates":[-92.269986,14.899981]}},{"type":"Feature","properties":{"name":"Tehuacan","tier":"city","country":"Mexico","admin1":"Puebla","population":241429},"geometry":{"type":"Point","coordinates":[-97.379984,18.450358]}},{"type":"Feature","properties":{"name":"Teziutl\u00e1n","tier":"city","country":"Mexico","admin1":"Puebla","population":177796},"geometry":{"type":"Point","coordinates":[-97.359985,19.82043]}},{"type":"Feature","properties":{"name":"Toledo","tier":"city","country":"United States of America","admin1":"Ohio","population":469924},"geometry":{"type":"Point","coordinates":[-83.579974,41.670026]}},{"type":"Feature","properties":{"name":"Uruapan","tier":"city","country":"Mexico","admin1":"Michoac\u00e1n","population":264531},"geometry":{"type":"Point","coordinates":[-102.070008,19.420377]}},{"type":"Feature","properties":{"name":"Waco","tier":"city","country":"United States of America","admin1":"Texas","population":167347},"geometry":{"type":"Point","coordinates":[-97.146381,31.549171]}},{"type":"Feature","properties":{"name":"Wahiawa","tier":"city","country":"United States of America","admin1":"Hawaii","population":174766},"geometry":{"type":"Point","coordinates":[-158.023621,21.503092]}},{"type":"Feature","properties":{"name":"Waterbury","tier":"city","country":"United States of America","admin1":"Connecticut","population":174236},"geometry":{"type":"Point","coordinates":[-73.050022,41.550008]}},{"type":"Feature","properties":{"name":"Waukegan","tier":"city","country":"United States of America","admin1":"Illinois","population":200000},"geometry":{"type":"Point","coordinates":[-87.844726,42.364041]}},{"type":"Feature","properties":{"name":"Waukesha","tier":"city","country":"United States of America","admin1":"Wisconsin","population":249912},"geometry":{"type":"Point","coordinates":[-88.231369,43.01165]}},{"type":"Feature","properties":{"name":"Wichita","tier":"city","country":"United States of America","admin1":"Kansas","population":401843},"geometry":{"type":"Point","coordinates":[-97.329987,37.719983]}},{"type":"Feature","properties":{"name":"Wilkes-Barre","tier":"city","country":"United States of America","admin1":"Pennsylvania","population":158913},"geometry":{"type":"Point","coordinates":[-75.877937,41.249044]}},{"type":"Feature","properties":{"name":"Wilmington","tier":"city","country":"United States of America","admin1":"Delaware","population":161560},"geometry":{"type":"Point","coordinates":[-75.546898,39.746268]}},{"type":"Feature","properties":{"name":"Wilmington","tier":"city","country":"United States of America","admin1":"North Carolina","population":161560},"geometry":{"type":"Point","coordinates":[-77.94502,34.225519]}},{"type":"Feature","properties":{"name":"Windsor","tier":"city","country":"Canada","admin1":"Ontario","population":319246},"geometry":{"type":"Point","coordinates":[-83.036853,42.315457]}},{"type":"Feature","properties":{"name":"Winston-Salem","tier":"city","country":"United States of America","admin1":"North Carolina","population":281683},"geometry":{"type":"Point","coordinates":[-80.259995,36.105431]}},{"type":"Feature","properties":{"name":"Worcester","tier":"city","country":"United States of America","admin1":"Massachusetts","population":287365},"geometry":{"type":"Point","coordinates":[-71.800021,42.270429]}},{"type":"Feature","properties":{"name":"York","tier":"city","country":"United States of America","admin1":"Pennsylvania","population":218010},"geometry":{"type":"Point","coordinates":[-76.72804,39.962921]}},{"type":"Feature","properties":{"name":"Youngstown","tier":"city","country":"United States of America","admin1":"Ohio","population":311990},"geometry":{"type":"Point","coordinates":[-80.649739,41.099699]}},{"type":"Feature","properties":{"name":"Zamora","tier":"city","country":"Mexico","admin1":"Michoac\u00e1n","population":214947},"geometry":{"type":"Point","coordinates":[-102.280021,19.980368]}},{"type":"Feature","properties":{"name":"Zumpango","tier":"city","country":"Mexico","admin1":"M\u00e9xico","population":250000},"geometry":{"type":"Point","coordinates":[-99.109982,19.810405]}}]}