{
  "type": "FeatureCollection",
  "features": [
    {
      "type": "Feature",
      "properties": {
        "name": "Example realm",
        "description": "Replace this demonstration polygon with your own borders.",
        "color": "#b31f34"
      },
      "geometry": {
        "type": "Polygon",
        "coordinates": [
          [
            [
              -10,
              45
            ],
            [
              5,
              45
            ],
            [
              5,
              55
            ],
            [
              -10,
              55
            ],
            [
              -10,
              45
            ]
          ]
        ]
      }
    }
  ]
}
